Record ID,Company name,Company owner,Phone Number,City,Street Address,Street Address 2,Postal Code,Website URL
6241355536,J.J. Twig's Pizza and Pub | Palatine,Sean MacCourtney,(847) 358-1400,Palatine,150 South Northwest Highway,,60074,jjtwigspalatine.com
2825492094,Transfer Pizzeria Café,Mckay May,(414) 763-0438,Milwaukee,101 West Mitchell Street,,53204,transfermke.com
785361561,Zionsville Pizzeria,Sean MacCourtney,(317) 873-2878,Zionsville,255 South Main Street,,46077,zionsvillepizzeria.com
878898232,Fat Daddy's Pizzeria,Mckay May,8013774992,Springville,93 South State Street,,84663,fatdaddyspizzeria.com
1234823365,180 Tacos,Chris Hubbard,(801) 356-8226,Provo,227 W BULLDOG BLVD,,84604,180tacos.com
5930450725,Gaetano’s Pizzeria & Creamery,Kassidy Farrer,(918) 298-1122,Jenks,12141 South Elm Street,105,74037,gaetanospizza.net
1014744592,La Salita Restaurant,Tyler Beagley,(505) 299-9968,Albuquerque,1950 Juan Tabo Blvd NE Suite H,,87112,lasalita.com
2825525778,Parmesan's Pizzeria,Sean MacCourtney,(417) 343-5790,Kimberling City,14608 Missouri 13,,65686,parmesanspizzeria.com
4189701921,Mi Corazon Mexican Restaurant,Tyler Price,+18015046348,Spanish Fork,310 N Main St,,84660,micorazonmexicanrestaurant.com
785692703,Lake Pizza & Restaurant,Chris Hubbard,(508) 943-3684,Webster,39 Thompson Road,,1570,lakepizzarestaurant.com
2825504140,Wild West Pizza & Grill,Mckay May,(805) 735-4000,Lompoc,1137 North H Street,,93436,wildwestpizzaoflompoc.com
658040017,Kohinoor Restaurant,,+1 410-464-9600,Baltimore,5926 York Rd,,21212,https://www.kohinoorbaltimoremd.com/
786759185,Cafe Panuzzo’s,Sean MacCourtney,(407) 977-2116,Oviedo,1003 Lockwood Boulevard,,32765,cafepanuzzos.com
6249439872,Aracuri's Cafe (in the YWCA),Chase Christensen (Deactivated User),,Greenwich,259 E Putnam Ave,,6830,https://www.arcurispizza.com/
8848506472,Soybean Asian Grille,Chris Hubbard,(302) 636-0800,Wilmington,4702 Limestone Road,,19808,soybeanasiangrille.com
8848534394,Taro Kitchen and Cocktails,,(469) 630-9337,Highland Village,3090 FM 407 #330a,,75077,https://tarokitchencocktail.com/
9289299610,Julias Vegetarian Restaurant,Kassidy Farrer,(831) 656-9533,Pacific Grove,1180 Forest Avenue,Suite F,93950,juliasveg.com
8848544045,lionsdenpizzeria.com,Jamison Fox,(217) 826-1340,Marshall,402 Archer Ave,,62441,lionsdenpizzeria.com
8848570934,Mario's Pizza & BBQ (North Aurora),,(630) 906-7300,North Aurora,911 Oak Street,,60542,mariospizzanorthaurora.com
9693501091,La Buccia Pizzeria,Connor Ward (Deactivated User),4696569119,Allen,977 Sam Rayburn Tollway Unit 120,,75013,https://roma-tx.com/
9778825387,Carollos' Family Restaurant,Sean MacCourtney,8563025991,Berlin,100 Cross Keys Rd,,8009,carollosturnersville.com
6854865942,Il Forno Restaurant & Brick Oven Pizza,,(908) 252-4500,Branchburg,"3390, 1260 NJ-28",,8876,ilfornopizzanj.com
7896464929,Bacci Pizzeria - Elmhurst,Ammon Musselman (Deactivated User),,Elmhurst,359 IL-83,,60126,https://www.baccipizza.com/
9326283374,Zizi Ramen Sushi,,,Dallas,"9711 Plano Rd, Dallas, TX 75238",,75238,https://www.ziziramensushi.com
7410282804,Lorenzo's Italian Restaurants,,(575) 521-3505,Las Cruces,1753 East University Avenue,,88001,lorenzositalian.com
7896480561,Bacci Pizzeria - Halsted,Ammon Musselman (Deactivated User),,Chicago,2557 N Halsted St,,60614,https://www.baccipizza.com/
7810987832,Itto Sushi - South Jordan,,,South Jordan,10555 S Redwood Rd,,84101,ittoutah.com
9812827220,Home Plate Grill,,(805) 845-3323,Goleta,7398 Calle Real Suite C,c,93117,homeplategoleta.com
6806833012,Joe & Pie Cafe Pizzeria | Downtown,,+1 412-402-0444,Pittsburgh,955 Liberty Avenue,,15222,joeandpie.com
9678918456,GIO'S Bar & Grill,Mark Kim,+1(845)323-4470,New City,253 S Little Tor Rd,,10956,giosrestaurants.com
6833994891,Larson House Pizzeria,,(503) 662-0079,Yamhill,190 S Maple St,,97148,https://larsonhouseyamhill.com/
7219966347,Hall's Kitchen | South Bend*,Mckay May,(574) 355-3534,South Bend,902 S Twyckenham Dr,,46615,https://www.hallskitchen.com/
9189005651,Uncle Spike's Pizzeria,,(330) 954-9724,Aurora,242 E Garfield Rd,,44202,https://www.unclespikespizzeria.com/
9403209866,Taco Mexico,,+1 770-781-9595,Cumming,530 Lake Center Pkwy Suite D,,30040,https://www.taco-mexico.com/ordena-online?lang=en
8848571028,Tufino Pizzeria,Kassidy Farrer,(718) 278-4800,Astoria,36-08 Ditmars Boulevard,,11105,tufinopizzeria.com
17519402811,Village Host Pizza & Grill Aptos,,(650) 591-6791,Aptos,4 Seascape Village,,95003,villagehost.com
17149857571,New York Pizza Pub,Kassidy Farrer,(830) 626-9782,New Braunfels,2345 TX-337-LOOP,,78130,ny-pizzapub.com
17521818945,Fratellis Pizzeria,Kassidy Farrer,6094786800,Sea Isle City,35 50th St,,8243,fratellispizzeria.net
17520275307,Village Host Pizza & Grill Capitola,Chris Hubbard,(650) 591-6791,Capitola,819 Bay Ave,,95010,villagehost.com
17522167629,Vintage Restaurant,Chris Hubbard,(301) 228-0878,New Market,8 West Main Street,,21774,https://www.vintage-eats.com/
17105884835,Frenchys Pizzeria,,(716) 282-5091,Niagara Falls,2210 Niagara St,,14303,frenchyspizzeria.com
16881225811,Holy Pie Pizzeria,Chelsea Watts (Deactivated User),,Garden City,1450 Dean Forest Rd,,31405,https://holypiepizzeria.com/
18125131577,Sonny’s Pizzeria,,(920) 743-2300,Sturgeon Bay,129 North Madison Avenue,,54235,sonnyspizzeria.com
15034019690,Avellino’s Pizza & Catering,,(516) 307-1313,Garden City South,279 Nassau Blvd,,11530,https://www.avellinospizzamenu.com
18107542076,B'n Chingon Mexican Restaurant,,(630) 402-1530,Naperville,367 E Bailey Rd,,60565,www.bnchingonmex-restaurant.com
15969193134,Victoria's Pizzeria,Sean MacCourtney,(781) 383-2777,Cohasset,790 Chief Justice Cushing Hwy,,2025,https://www.victoriaspizzeria.com/
17459197240,Pizzeria Mariana,Mckay May,(302) 737-2135,Newark,140 East Cleveland Avenue,,19711,pizzeriamariana.com
15966895403,Pasquale's Pizzeria (Dravosburg),Chris Hubbard,(412) 896-6730,Dravosburg,100 Bettis Rd,,15034,https://pasqualespizzeria.com/locations/
18295567406,Seafood Junction (Algoma),Sean MacCourtney,(662) 838-8100,Pontotoc,101 Front Street,,38863,seafood-junction.com
18385939787,Magpie Bakery,Kassidy Farrer,9735577155,Bloomingdale,2-14 Riverside Square,,7403,magpiebakery.com
16400533309,Colorado Grill,Tyler Beagley,(559) 439-2747,Fresno,46 E Herndon Ave,,93720,https://www.coloradogrillrestaurants.com/
16791305500,Zulu Grille,Dallas Williams,8019016492,Lehi,2951 Club House Dr,,84043,https://www.zulugrille.com/
16400523331,Brasi's Pizzeria,Sean MacCourtney,16306058512,Lisle,5328 Main St Unit 114,Unit 114,60532,https://www.brasipizzeria.com/
17839272612,Esposito's Pizza Bar Restaurant,Chris Hubbard,(954) 916-5667,Davie,2221 South University Drive,,33324,espositospizzaonline.com
19332746835,Punjabi Dhaba Restaurant,Sean MacCourtney,,Cambridge,225 Hampshire Street,,2139,punjabidhaba.co
20844832893,Southside Pizza/ Slicks Burger,Mckay May,(423) 498-2193,Chattanooga,612 East Main Street,,37408,southsidepizzatn.com
21375671582,Fat Boyz BBQ,Sean MacCourtney,19546828233,Fort Lauderdale,899 East Cypress Creek Road,,33334,fatboyzbarbecue.com
18833703554,Salerno's Pizzeria & Sports Bar (Hodgkins),,(708) 354-0099,Hodgkins,9301 W 63rd St,,60525,https://www.salernopizza.com/hodgkins
21476469555,Rain City Burger - -$0.08/text,Kevin Courtright,(206)525-3542,Seatlle,"6501 Roosevelt Way NE,",,98115,http://raincityburgers.com
21686889865,Toppled Turtle Brewing Company and Brick Oven Pizza Kitchen,,(806) 421-6863,Dumas,102 E 7th St,,79029,https://dumasbrewery.com/
19736533282,Pizzeria Maki,Sean MacCourtney,,Wilmington,4007 Kennett Pike,a,19807,pizzeriamaki.com
20844856126,Slick's Burgers,,,Chattanooga,309 E Main St,,37408,https://www.slicksburgers.com/
19683363187,Jamestown Hospitality Group ( Tonic Seafood and Steak),Sean MacCourtney,+113026965652,Wilmington,111 W 11th St,,19801,https://www.tonicsns.com/
20119424599,Deniro's Pizzeria,Sean MacCourtney,(716) 681-5555,Depew,2251 George Urban Boulevard,,14043,denirospizzeria.com
19683469129,Jamestown Hospitality Group (Park Cafe | Jamestown Catering),Sean MacCourtney,+113026965652,Wilmington,2510 W 5th St,,19805,https://www.parkcafede.com/?utm_source=extnet&utm_medium=yext&y_source=1_NTkyNzgxNjUtNzE1LWxvY2F0aW9uLndlYnNpdGU%3D
19706670389,Angie's Sports Bar & Pizzeria,Chris Hubbard,(773) 735-8527,Chicago,8352 S Pulaski Rd,,60652,angiespizzas.com
20852285783,Cottage Inn Pizza & Pub (Davison),Chris Hubbard,(810) 214-0100,Davison,9430 Lapeer Rd,,48423,https://order.cottageinn.com/?uniqueStoreIdentifier=DAVISON&y_source=1_MjQ4NjU0MjMtNzE1LWxvY2F0aW9uLndlYnNpdGU%3D#/
18756859207,Board & You Bistro and Wine Bar,Sean MacCourtney,,New Albany,434 Pearl St,,47150,boardandyoubistro.com
19486753091,The Smoked Taco | 7,Mckay May,,American Fork,933 W 500 N Ste 102,,84003,www.thesmokedtaco.com
18684466022,Coastal Cafe and Creamery,Dallas Williams,(864) 349-1935,Piedmont,3411 SC-153,,29673,coastalcafeandcreamery.com
21362251932,The Great Greek Mediterranean Grill (Maple Grove),Kassidy Farrer,(763) 951-3902,Maple Grove,7860 Main St,,55369,https://www.thegreatgreekgrill.com/maple-grove-mn
18999945368,Jeovanis Pizzeria,Chris Hubbard,(240) 769-0021,Boonsboro,2 S Main St,,21713,jeovanispizzeria.com
23112557213,Burrata Italian Kitchen,Chris Hubbard,(330) 754-6100,Canton,3102 W Tuscarawas St,,44708,http://go4burrata.com
23438670606,Stone Mountain Pizza Cafe,Mckay May,(770) 413-6717,Stone Mountain,5370 Stone Mountain Hwy,,30087,http://pizzacafe.com
22860425093,BIG BEN'S PIZZERIA,,7138946793,Houston,,,,
23241360470,Biaggio Pizzeria & Restaurant,Chris Hubbard,(610) 395-7006,Allentown,1526 N Cedar Crest Blvd,,18104,http://biaggiopizza.com
22660672652,Little Greek Fresh Grill- Carrollwood,,+1 813-374-8822,Tampa,15225 N Dale Mabry Hwy,,33618,https://littlegreekfreshgrill.com/store/carrollwood/
22555292489,Pecina's Mexican Cafe,Chris Hubbard,(405) 542-6492,Hinton,200 E Main St,,73047,http://pecinas.com
21804975516,Angela's Pizza Kitchen,Vanessa Wright,+1(561)955-8880,Boca Raton,22191 Powerline Rd,,33433,angelaspizzakitchen.com
23565010854,Bajio Mexican Grill,Chris Hubbard,(801) 224-6668,Provo,4801 N University Ave,,84604,http://bajiogrillutah.com
21799616868,Astorga's Mexican Restaurant,,(760)872-3849,Bishop,2206 N Sierra Hwy,,93514,http://astorgasmexicanrestaurant.com
22293617283,Lemon Zest Cafe - Sierra Madre,Dallas Williams,4437993711,Sierra Madre,74 W. Sierra Madre Blvd.,,91024,https://lemonzest.cafe/
22065666657,Fornello Pizzeria,Chris Hubbard,(412) 679-3737,Pittsburgh,1256 Evergreen Road,,15209,https://www.fornellopizzeria.com/
22514154156,Sage & Barrel Craft Eatery,Mckay May,(480) 597-9096,Queen Creek,7215 S Power Rd B-107,,85142,https://www.sagebarrel.com/
23093447713,Lovey's Pizza & Grill,Mckay May,(908) 418-6152,Morris Plains,91 West Hanover Avenue,,7950,https://www.loveyspizza.com/
23458654564,Pepz Pizza & Eatery | Placentia,Kassidy Farrer,(714) 572-2100,Placentia,732 N Rose Dr,,92870,http://pepzpizzas.com
22640070160,Arlington Cafe,,(508) 369-7101,Arlington,475 Summer Street,,2474,http://www.eatarlingtoncafe.com/contact.html
23285492881,Roma's Italian Restaurant in The Colony,Chris Hubbard,(972) 804-2962,The Colony,6700 Main Street,,75056,https://www.romasthecolony.com/
23235544202,Sam Jones BBQ,Chris Hubbard,(984) 206-2555,Raleigh,502 W Lenoir St,,27601,http://samjonesbbq.com
21925390457,Acropolis Greek Taverna,Chris Hubbard,(813) 768-4202,Riverview,6108 Winthrop Town Centre Ave,,33578,http://acropolistaverna.com
22045667752,Public House Kitchen & Brewery,Chris Hubbard,(571) 292-1427,Manassas,9406 Battle St,,20110,http://phbrewpub.com
21805041178,Russo's New York Pizzeria  | Broken Arrow,Tyler Price,9189946776,Broken Arrow,775 W Tuscon St,4680,74011,https://order.toasttab.com/online/russos-broken-arrow-775-west-tucson-street
22693338391,Tosco Pizza & Family Restaurant,Chris Hubbard,(610) 539-6800,Eagleville,2908 W Main St,,19403,https://toscopizza.com/?utm_source=Google&utm_medium=Organic&utm_campaign=GMB
21804949349,Village Host Pizza & Grill Aptos,Chris Hubbard,(831) 685-8646,Aptos,4 Seascape Vlg,,95003-6100,villagehost.com
23115039004,Urban Kitchen & Deli,,(216) 471-8956,Cleveland,9751 Chester Ave,,44106,http://www.urbancle.com/
22792342372,Bono's Italian Restaurant,Chris Hubbard,(303) 278-1068,Golden,14799 W 6th Ave,,80401,http://bonositalianrestaurant.com
22270556303,Peppino's Pizzeria & Sports Grille of Jenison,Chris Hubbard,(510) 462-8379,Byron Center,2185 84th St SW,,49315,peppinospizza.com
22645370935,"The Great Greek Mediterranean Grill - Cedar Park, TX - Arbor Park Shopping Center",Mark Kim,(512) 528-5600,Henderson,1275 West Warm Springs Road,,89014,https://www.thegreatgreekgrill.com/
22747921171,Funky Pelican/Crabby Joe's/RiverGrille on the Tomoka,Chris Hubbard,(386) 439-0011,Flagler Beach,215 S Oceanshore Blvd,,32136,http://funkypelican.com
22976392327,Anthony's Pizzeria,Chris Hubbard,(864) 228-9677,Simpsonville,655 Fairview Rd,A,29680,http://anthonyssimpsonville.com
23166394411,Screpesi's Sandwich Shop,Sean MacCourtney,(610) 373-9913,Reading,500 Lancaster Ave,,19611,http://screpesissandwichshop.com
29539028394,Fishers Pub,Mckay May,(508) 923-9757,Middleborough,360 Wareham Street,3222,2346,https://www.fisherspub.com/
25804203024,Pizza Castle Restaurant,Sean MacCourtney,(203) 755-3501,Waterbury,143 Chase Ave,,6704,https://pizzacastlect.com
29569766755,On Demand Sushi,Chris Hubbard,(702) 302-7700,Las Vegas,11350 Southern Highlands Parkway,135,89141,https://ondemandsushi.com/
27716069447,Falbo Bros Pizzeria (Hartland),Kassidy Farrer,(262) 367-2700,Hartland,418 Merton Ave,100,53029,https://falbobrospizza.hungerrush.com/
25030104749,"Local Beer, Patio and Kitchen",Mark Kim,(402)991-8852,Omaha,4909 S 135th St,,68137,http://localbeer.co
28272477550,Panzano Pizzeria,Sean MacCourtney,(973) 703-3969,Montclair,71 Walnut St,,7042,https://www.panzanopizzeriatrattoria.com/?utm_source=gbp
29349697592,LaPorta's Pizzeria,,(716) 688-7740,Buffalo,485 W Klein Rd,,14221,http://www.laportaspizzeria.com
26998240865,Falbo Bros. Pizzeria (Dubuque),Chris Hubbard,(563) 451-0855,Dubuque,1315 West Sam Houston Parkway North,100,77043,https://falbobrospizza.hungerrush.com/order/menu/2#beverage
28274314787,Nora's Grill,Chris Hubbard,(410) 988-3350,Sykesville,6300 Georgetown Boulevard,,21784,NorasGrillAndBistro.com
26170836625,Zorba's Pizza Grill,Dallas Williams,(443) 858-4400,Edgewood,2000 Pulaski Highway,,21040,https://www.zorbaspizzagrill.com/
29619966720,P & L Grill & Diner,,(201) 865-1121,Union City,590 32nd St,,7087,http://www.pandlgrillnj.com
25030865514,Alpha Omega grill & bakery,Sean MacCourtney,(254) 732-7506,Waco,929 Franklin Ave,,76701,http://alphaomegawaco.com
23759451572,Hurricane Pizza Grill,Dallas Williams,(717) 684-6000,Columbia,4031 Columbia Avenue,,17512,https://www.hurricanepizza.com/
28972642943,VooDoo BBQ,Sean MacCourtney,(850) 912-8111,Pensacola,1741 E 9 Mile Rd #9,Suite 9,32514,http://voodoobbq.com
23955610483,Commercial Point Cafe,Chris Hubbard,(954) 731-2233,Fort Lauderdale,3601 W Commercial Blvd,,33309,http://commercialpointcafe.com
23849143096,Cutter's Pizzeria of Alexandria,Chris Hubbard,(256) 624-7510,"Alexandria, Oxford",7113 US Highway 431,,36250,http://cutterspizzeria.com
28839630399,EJ's Pizzeria,Sean MacCourtney,(715) 531-0500,Hudson,1830 Webster St,,54016,http://pizzeriaejs@gmail.com
28316911634,Sarpino's Pizzeria,Kassidy Farrer,(954) 441-3838,Miramar,200 Tri State International,550,60069,https://www.gosarpinos.com/pizza-delivery/sarpinos-miramar
25246747166,The Spot Pizzeria & Deli,Kassidy Farrer,+1 410-962-1600,Baltimore,1101 St Paul St,,21202,http://thepizzeriaspot.com/
28291243906,Danny's Pizzeria & Toscano's Italian Kitchen,Dallas Williams,(781) 504-2864,Bradenton,7220 Manatee Ave W,,34209,https://dannyspizzaflorida.com/ & https://toscanositalianfood.com/
28160149157,Marco Pizzeria,Sean MacCourtney,(203) 641-4499,Branford,313 East Main Street,,6405,https://marcopizzeria.com/
27403422852,Philly Campus Pizza Restaurant,,(267) 243-8835,Philadelphia,1000 Diamond St,,19122,campuspizzarestaurant.com
28577571459,Antica Pizzeria & Market,Chris Hubbard,(407) 834-7770,Altamonte Springs,249 W-SR 436,,32714,http://www.antica-pizzeria.com
29342748437,Lillian's Sports Grill,Mark Kim,,Jacksonville,5393 Roosevelt Boulevard,6,32210,lillianssportsgrill.com
23765314667,Luz Tacos Geo Cider,,(778) 836-9005,Vancouver,38921 Queens Way,,V8B 0V1,https://www.luztacos.com/
28844471991,Baby Blue BBQ,Kassidy Farrer,(310) 396-7675,Venice,444 Lincoln Blvd,,90291,https://babybluesbbq.com/ordering
28597124474,Fresco Cafe and Pizzeria,Kassidy Farrer,(504) 862-6363,New Orleans,7625 Maple St,,70118,http://www.frescocafe.us
31045023596,Pizza Pie Cafe,Chris Hubbard,(801) 763-5530,Highland,5435 W 11000 N #17,172,84003,https://pizzapiecafe.co/
30368933935,Buh's Bbq LLC,,(850) 936-4244,Navarre,9532 Navarre Pkwy,,32566,http://www.buhsbbq.com/
30344779685,Classico Pizzeria,,(917) 453-7138,West Islip,5 Udall Road,,11795,https://www.classicopizzeriany.com/
30543419802,Solo Burgers and Wings,,(214) 434-1711,Dallas,6413 Hillcrest Avenue,,75205,https://soloburger-usa.com/
31023889943,Amici Pizzeria,,(201) 970-1685,Middletown Township,2387 New Jersey 36,,7716,https://www.amicipizzerianj.com/
32463365555,Giuseppe's Pizzeria and Catering,Mckay May,(630)608-2552,Des Plaines,554 E Algonquin Rd,,60016,http://giuseppespizzeriacatering.com
31278148883,Westover Pizzeria,Mckay May,+1(203)569-6090,Stamford,234 Stillwater Ave,,6902,http://www.westoverpizza.com
31458179651,Cleats Bar and Grille,,(517) 574-4008,Lansing,5801 Aurelius Rd,,48911,https://www.cleatsbarandgrille.com
31892764842,Havertown Grille/Crust Pizza (Mornton),Mckay May,(610) 449-5500,Havertown,"2409 West Darby Road,",,19083,https://crusthavertown.com/
30658388741,Secret Burger Kitchen,Mckay May,(206) 412-7285,Tacoma,8402 South Hosmer Street,,98444,https://www.secretburgerkitchen.com/
30301782877,Brooklyn Boy’s Pizzeria,Mckay May,(704) 696-2697,Cary,1260 NW Maynard Rd,,27513,https://www.brooklyn-boys.com/
30491212051,Bad Ass Street Tacos & Cater LLC,Mckay May,(805) 370-8226,Thousand Oaks,2951 E Thousand Oaks Blvd,,91362,https://www.badassstreettacos.com
31504256949,Big D's BBQ Trough,,(843) 254-9353,Conway,2917 Church St,,29526,http://www.bigdsbbqtrough.com/
31134253352,Boondocks Grille,,(207) 554-7155,Fort Fairfield,294 Main St,,4742,https://boondocksgrille.com/hgt/
32126463601,Sixty Six Grill & Taphouse,Tyler Price,(336) 996-1243,Winston-Salem,"3440 Frontis St, Winston-Salem, NC 27103",,27103,https://sixtysixgrillandtap.com/sixtysixkernersville
30209545789,Taco Dog | 1915 E Main St,Vanessa Wright,+1(864)542-8058,Spartanburg,1915 E Main St,,29307,http://tacodog.com
31169289336,Pizzeria Dolorosa,Dallas Williams,+1(608)519-1836,La Crosse,115 4th St N,,54601,https://www.pizzeriadolorosa.com
30664877686,McDaniel's QN2 BBQ,Dallas Williams,(404) 725-7100,Alpharetta,5865 Gateway Dr,,30004,https://www.mcdanielsqn2.com/
32127391567,Peppino's Restaurant and Catering,Dallas Williams,3154743663,Syracuse,1849 Grant Blvd,,13208,http://mypeppinos.com
31411140739,Stadium Pepz Pizza & Eatery,Dallas Williams,7145887789,Anaheim,726 S State College Blvd,,92806,https://stadiumpepz.com/
31167617137,The Local Bar & Grille,,(952) 261-8646,Ashland,3000 Golf Course Rd,,54806,http://www.thelocalbarandgrille.com
31252909837,Driftwood Catering,,(715) 201-2230,Ashland,3000 Golf Course Rd,,54806,www.driftwoodcateringco.com
30429925410,Ferro Pizzeria,Dallas Williams,(786) 226-6233,Tamarac,8146 North University Drive,,33321,https://ferropizza.com/
31403926573,A Bite of Belgium Gatsbys Bistro,Mckay May,(575) 727-2483,Las Cruces,741 N Alameda Blvd #16,,88005,https://www.abiteofbelgium.com/
33070033716,Fresh Meadows Pizzeria,Sean MacCourtney,(718) 217-2700,Fresh Meadows,195-09 69th Ave,,11365,https://www.fmpizzeria.com
33361157215,The Standard Restaurant,,2399108933,"Fort Myers,","1520 Broadway, Ste. 101",,33901,http://thestandardftmyers.com
34380791416,Napoli's Pizza Kitchen,Mckay May,(818) 909-0100,Los Angeles,14831 Burbank Boulevard,,91411,napolispizzakitchen.com
33023405154,Gondolier Italian Restaurant & Pizza,Mark Kim,+1(865)577-2898,Knoxville,7644 Mountain Grove Dr,,37920,http://mygondolier.com
33065220505,Il Capo Pizzeria,Sean MacCourtney,(480) 951-0077,Scottsdale,7366 East Shea Boulevard,102,85260,ilcapoaz.com
34372753054,Sushi Sogo,Minwoo Ryum,9546050072,Cooper City,"10000 Stirling Rd, Ste 8",#8,33024,http://sushisogo.com
33065228425,Arturo's pizza kitchen,Dallas Williams,(419) 698-1641,Northwood,2507 Oregon Rd,,43619,https://www.arturospizzakitchen.com/
34282329613,Tryst Cafe (Phoenix and Chandler),Mckay May,602-689-7515,Phoenix,21959 N. Tatum Blvd.,,85050,https://trystcafe.com/
34442180467,Enzo's Pizzeria,Kassidy Farrer,(310) 208-3696,Los Angeles,"1145 Westwood BlvdLos Angeles, CA 90024",,90024,http://www.enzospizzeria.com/
33048565349,Pizza Heaven Bistro,Mckay May,(602) 277-8800,Phoenix,5150 N 7th St,,85014,https://www.phbistro.com
34372673293,Andrina's Pizzeria,Kassidy Farrer,+1(781)648-4800,Arlington,1060 Massachusetts Ave,,02476,andrinaspizza.com
33065227285,Silvio's Restaurant & Pizzeria,Sean MacCourtney,(914) 769-6077,Thornwood,628 Columbus Ave,,10594,https://www.silviosrestaurant.com/
33079779922,Pickleman's Gourmet Cafe (Noblesville),Sean MacCourtney,(317) 900-1975,Noblesville,9510 E 146th St SUITE 140,,46060,https://www.picklemans.com/locations/
33214582622,North Point Cafe,Mckay May,+19405911988,Denton,2000 W University Dr.,,76201,https://www.northpoint-cafe.com/
34442195978,Broadway Pizzeria South,Dallas Williams,(205) 722-1047,Tuscaloosa,5400 McFarland Boulevard East,,35405,broadwaypizzatuscaloosa.com
33065227812,Sherrilli's Pizzeria,Chris Hubbard,(812) 246-3346,Sellersburg,496 N Indiana Ave,,47172,https://sherrillispizzeria.com/
33023402923,Paso's Pizza Kitchen,Sean MacCourtney,8053692696,Paso Robles,1467 Creston Rd,,93446,http://www.pasopizzakitchen.com
35452140820,Transilvania Restaurant and Bar,Minwoo Ryum,+1(203)248-3968,East Haven,23 Main St,,6512,http://www.transilvaniact.com/
35274553735,Genova's Italian Restaurant & Brewery (West York),Minwoo Ryum,7177924602,West York,2530 W Market St,,17404-5528,http://www.genovaspizza.com/
36651029908,Cedar Grill and Pizza,Tyler Price,+  1 (551) 574-5556,Caldwell,"295 Bloomfield Ave Ste 2, Caldwell, NJ 07006",,07006,https://cedargrillandpizza.com/
35158858369,Craft Burger Co.,Vanessa Wright,+1(714)983-7558,Placentia,1450 N Kraemer Blvd,,92870,http://craftburgercompany.com
34840057475,MEDI Kitchen + Cocktail,Tyler Price,+1(773)857-1016,Chicago,2138 N Halsted St,,60614,https://www.medichicago.com/
36283914542,The 120 Bar and Grill,Minwoo Ryum,+19706172792,loveland,120 N Lincoln Ave,,80537,https://the120barandgrill.com/
34812622415,Oasis Diner,Vanessa Wright,+1(317)837-7777,Plainfield,405 W Main St,,46168,http://www.oasisdiner.com/
35983599673,Phil Sandoval's Mexican Restaurante,Mark Kim,,Hoover,1031 Brocks Gap Pkwy,,35244,philsandovals.com
37561131355,Golden China Restaurant,Mark Kim,+16267998867,South Pasadena,1115 Fair Oaks Ave,,91030,https://www.goldenchinasopas.com/
36996012985,Crabbae West Bar & Grill,Mark Kim,,West Orange,"643 Eagle Rock Ave, West Orange, NJ 07052",,07052,https://crabbaewest.com/
6773296824,"Mancino's Pizza & Grinders | DeWitt, MI",Cooper Lush (Deactivated User),,DeWitt,12900 S US Highway 27 # B,,48820,https://www.mancinospizzaandgrinders.com/
2780116412,Panhandler's Pizza,Sean MacCourtney,(970) 232-9328,Fort Collins,1220 West Elizabeth Street,,80521,panhandlerspizza.com
1014743918,Best Pizza & Brew,Chris Hubbard,(760) 435-1000,Oceanside,1639 S Coast Hwy,,92054,bestpizzaandbrew.com
5931773615,Obo Pizza Waldorf Loc,,(301) 710-5444,Saint Charles,162 Smallwood Village Center,,20602,obopizza.com
2825492043,Pizza Parma,Kassidy Farrer,(412) 577-7300,Pittsburgh,823 Penn Avenue,,15222,https://www.pizzaparma.us
2825511754,"Pizza One | Haskell, Sparta, Wayne",Mckay May,(775) 322-2002,Wanaque,1185 Ringwood Avenue,,7420,njpizzaone.com
5930433631,Pizza Sam’s,,(989) 631-1934,Midland,102 West Main Street,,48640,pizzasams.com
2780126365,Conans Pizza (South),,+1(512)459-3221,Austin,2438 W Anderson Ln,,78757,http://conanspizza.com
5930490962,Pizza Alley,Ammon Musselman (Deactivated User),+1 303-458-8415,Columbus,10 East 12th Avenue,,43201,pizzaalley.com
6033315501,Blackjack Pizza | Montbello,Mckay May,(562) 694-4111,Denver,4850 Chambers Rd,,80239,https://blackjackpizza.com
2780100852,Five Star Pizza(Clearwater),Sean MacCourtney,(813) 899-9700,Temple Terrace,10926 North 56th Street,,18350,fivestarpizza.com
785692053,"Deek's Pizza Grand Forks, ND",Ryan Stocking (Deactivated User),+1 701-772-3335,Grand Forks,512 N Washington St,,58203,deekspizza.com
2825526062,Real Pizza | Powdersville,Kassidy Farrer,(864) 269-2700,Piedmont,11064 Anderson Rd,,29673,realpizza.org
6745310025,Ameci Pizza and Pasta Corporate | Castaic,,(661) 257-3855,Castaic,27305 Live Oak Rd #4520,,91384,amecipizzaandpasta.com
6093630078,Blackjack Pizza,Mckay May,+1 813-333-2921,Tampa,3692 W Gandy Blvd,,33611,http://Blackjackpizza.com
2825525798,Big Daddy's Pizza | Park City,,(435) 649-1591,Park City,1612 W Ute Blvd #111,,84098,bigdaddyspizzatogo.com
1728992348,Brooklyn's Finest Pizza | Lowell*,,(303) 477-0066,Denver,5007 Lowell Boulevard,,80221,brooklynsfinestpizza303.com
6226769527,Pizza King DE | Laurel,Chase Christensen (Deactivated User),,Laurel,307 N Central Ave # A,,19956,https://www.pizzakingde.com/
785692034,Chris’ Pizza Village,Sean MacCourtney,(931) 358-2345,Clarksville,3383 U.S. 41 Alternate,,37043,chrispizzavillage.net
6745311322,Ameci Pizza and Pasta Corporate | Topanga Canyon,,(818) 346-1500,Woodland Hills,4861 Topanga Canyon Blvd,,91364,amecipizzaandpasta.com
5851830675,Blackjack Pizza | Pueblo*,Mckay May,(303) 426-1921,Pueblo,1000 W 6th St,,81003,blackjackpizza.com
5930491175,Sam's Pizza - Wausau,Sean MacCourtney,(715) 842-3165,Wausau,111 Elm St,,54401,samspizzaofwausau.com
817289429,North Beach Pizza (6),Sean MacCourtney,(415) 433-0400,San Francisco,800 Stanyan Street,,94117,https://northbeachpizza.com/
2825499653,Philly's Pizza,Mckay May,(636) 433-5577,Marthasville,207 Depot Street,,63357,phillyspizza.com
6745311072,Ameci Pizza and Pasta Corporate | Newhall,,8185091666,Newhall,"2343, 24268 Lyons Ave",,91321,amecipizzaandpasta.com
785361084,Pizza Planet (TX),Minwoo Ryum,+1 806-353-6666,Amarillo,6801 Bell Street,100,79109,pizzaplanet.com
785361335,Primo Pizza,Kassidy Farrer,(203) 269-1700,Hamden,1190 Sherman Avenue,,6514,primopizzallc.com
785509547,Glory Days Pizza,Dallas Williams,(785) 271-5151,Shawnee,13107 Shawnee Mission Pkwy,,66216,glorydayspizza.com
785508269,Attilios Pizza (NJ),,08753,Toms River,941 NJ-166,,08753,attiliospizza.org
990812812,Blackjack Pizza | Denver (Downtown & Quincy),Mckay May,(303) 426-1921,Westminster,1223 Cedarwood Dr,,80501,blackjackpizza.com
6226792353,Pizza King DE | Millsboro,Chase Christensen (Deactivated User),,Millsboro,358 E Dupont Blvd,,19966,https://www.pizzakingde.com/
785509206,Bigfoot Pizza & Bar | aka Sammy's Pizza,Chris Hubbard,(253) 627-4300,Tacoma,1308 North I Street,,98403,sammyspizzatacoma.com
1014743538,Curry Pizza House,Tyler Beagley,(510) 796-7800,San Jose,2984 Union Avenue,,95124,currypizzahouse.com
814954781,Free Wheeler Pizza,,(801) 322-3733,Salt Lake City,150 South 400 East,,84111,freewheelerpizza.com
785691972,Broadway Pizza | Robbinsdale,Tyler Beagley,(763) 515-9214,Minneapolis,4106 Lakeland Avenue North,,55422,broadwaypizzamn.com
2825526522,Uncle Rico's Pizza,Shane Murphy,+1 518-280-9544,Niskayuna,2309 Nott Street East,STE 311,12309,unclericospizza.com
621574549,Rock Creek Pizza,John Reeder (Deactivated User),+1 801-253-3711,Sandy,9305 S Village Shop Dr,,84065,rockcreekpizzaco.com
2825526257,Uncle Andy's Pizza,Mckay May,(248) 545-6111,Berkley,28957 Woodward Ave,,48072,https://www.uncleandyspizza.com/
2825491915,Johnny's The Bronx Pizza,Mckay May,(949) 729-9159,Corona Del Mar,2756 East Coast Hwy,,92625,https://www.johnnysrealnypizzamenu.com/
6004845385,Blackjack Pizza | Greeley West*,Mckay May,(970) 356-2500,Greeley,814 16th St,,80631,https://blackjackpizza.com/
6688774413,525 Authentic Brick Oven Pizza Company,,(559) 375-1680,Fresno,3795 N West Ave #104,,93705,525pizza.shopsettings.com
2780100631,JUST PIZZA & Wing Co. | LLC (Transit),Vanessa Wright,7166887500,Williamsville,5445 Transit Road,,14221,justpizzausa.com
785510263,Pizza Grocery,Sean MacCourtney,(662) 287-3200,Corinth,800 Cruise Street,,38834,http://www.pizzagrocery.com/
785361534,Trail Rider Pizza,Sean MacCourtney,(505) 281-6068,Tijeras,544 U.S. Route 66,,87059,trailriderpizza.com
882409258,Roccos Pizza,Ammon Musselman (Deactivated User),+1 415-968-8393,Mill Valley,711 E Blithedale Ave,,94941,roccospizzamillvalley.com
6775020134,Luigi’s Pizza*,,(973) 839-0268,Ringwood,16 Skyline Lake Drive,,7456,luigisnjpizza.com
6054746715,Blackjack Pizza | Thornton,Mckay May,(303) 254-9735,Thornton,3218 E 104th Ave,,80233,blackjackpizza.com
3367612537,"Deek's Pizza Fargo, ND",Ryan Stocking (Deactivated User),,Fargo,702 N University Dr,,58102,https://deekspizza.com/?gad_source=1&gbraid=0AAAAADnUMeBM69A1-azT2-xlkRY1BybF2&gclid=CjwKCAjwn6LABhBSEiwAsNJrjrEvOThBfmSY5vwkN5Iv0YoW4x7-otHOb1zGPoqjg4FVRZWO1yMcoRoChrgQAvD_BwE
6048418117,Blackjack Pizza | Erie,Chase Christensen (Deactivated User),,Erie,515 Briggs St,,80516,https://blackjackpizza.com/
6145417101,Blackjack Pizza | Florida & Sheridan,Mckay May,(303) 922-2500,Denver,1490 S Sheridan Blvd,,80232,https://blackjackpizza.com/location/denver-florida-s-sheridan/
2825504167,Tony and albas pizza,Dallas Williams,(408) 246-4605,San Jose,3137 Stevens Creek Boulevard,,95117,tonyandalbaspizza.com
1014743981,Josie's Pizza & Wings,Mckay May,(407) 395-9794,Windermere,5855 Winter Garden Vineland Rd,Suite 150,34786,josiespizza.com
6786101666,Profound Pizza Co,,(626) 388-6111,West Covina,1232 Valinda Ave,,91790,profoundpizzaco.com
2825497011,D'Al's Pizza | Charleston,Dallas Williams,(843) 853-6337,Charleston,229 Saint Philip Street,,29403,dalspizza.com
6537118335,"Blackjack Pizza | Parker, CO",Mckay May,(303) 523-6873,Parker,9821 S Parker Rd,,80134,https://www.mancinospizzaandgrinders.com/
785360936,Perinton Pizza,,(585) 223-8118,Fairport,650 Whitney Road,,14450,perintonpizza.net
5851717435,Blackjack Pizza | Aurora (Alameda),Mckay May,(303) 426-1921,Aurora,13696 E Alameda Ave,,80012,https://blackjackpizza.com/locations/aurora-alameda/
6182472818,Blackjack Pizza | Uintah,Mckay May,(719) 633-1200,Colorado Springs,1915 W Uintah St,,80501,blackjackpizza.com
1014744717,Slices Pizza,Sean MacCourtney,(215) 843-4747,Philadelphia,4249 Ridge Ave,,19129,slicespizzapa.com
1873926986,Murray's Pizza (West Bank),,(250) 707-1313,Summerland,13604 Victoria Road North,,V0H 1Z5,murrays.pizza
7114426120,Real Pizza | Wren,Kassidy Farrer,(864) 850-1236,Piedmont,1120 Wren School Road,,29673,realpizza.org
7751742988,Bourbon Street Pizza - North Webster,Ammon Musselman (Deactivated User),,North Webster,643 N Main St,,46555,https://www.bourbonpizza.com/
6805277096,McGregor Pizza & Deli,Dallas Williams,(239) 939-1148,Fort Myers,4600 McGregor Boulevard,,33901,mcgregorpizza.com
7751742751,Bourbon Street Pizza - Bourbon City,Ammon Musselman (Deactivated User),,Bourbon,209 N Main St,,46405,https://www.bourbonpizza.com/
8848440191,Lenzini’s 241 Pizza,Mckay May,(310) 559-8241,Los Angeles,3500 Overland Avenue,,90034,pizzadeliveryculvercityca.com
9620776292,Ricobene's,Dallas Williams,(312) 225-5555,Chicago,252 W 26th St,,60616,ricobenespizza.com
7752798722,Bourbon Street Pizza - Walkerton,Ammon Musselman (Deactivated User),,Walkerton,608 Roosevelt Rd,,46574,https://www.bourbonpizza.com/
7410238092,SouthCreek Pizza Co,,+1 775-622-1620,Reno,45 Foothill Road,,89511,southcreekpizza.com
9338926222,Pizza Ranch | Waseca,,(712) 707-8800,Waseca,212 17th Ave NE,,56093,pizzaranch.com
9302484563,Blackjack Pizza | Commerce City,Mckay May,(303) 286-1770,Commerce City,6225 E 71st Pl,,80022,https://blackjackpizza.com/
9500524907,Primo Pizza & Wings,,+1 732-906-6400,Elizabeth,946 S Almora Ave,,08837,https://www.primopizzagrill.com
7099665176,Straw Hat Pizza | Hayward,Kassidy Farrer,(925) 837-3400,Hayward,"1653 Industrial Pkwy W,",270,94544,strawhatpizza.com/hayward-industrial/index.php
7410273432,Malvern Pizza,,(610) 644-8888,Malvern,19 East King Street,,19355,malvernpizza.com
9500483706,Primo Pizza & Wings & Don Giovanni,,+1 732-727-0733,South Amboy,276 Main St,,08879,https://www.dongiovannirestaurant.com
8325146487,Little Italian Pizza,Sean MacCourtney,(630) 983-8200,Naperville,1037 West Ogden Avenue,,60563,https://www.littleitalianpizza.com/
9678945448,Sammy's House of Pizza,Sean MacCourtney,(401) 353-7827,North Providence,1388 Mineral Spring Avenue,,2904,sammyshouseofpizza.com
9430155586,Rich's 5 Star Pizza,Mckay May,(281) 598-8461,Kent,13121 SE Kent-Kangley Rd #102,,98030,https://richs5starpizza.hungerrush.com
6908513692,Inferno Pizza | North Huntingdon*,Mckay May,(724) 382-5006,Irwin,13380 US-30,,15037,eatinfernopizza.com
9593739405,Brooklyn V's Pizza Queen Creek,Taylor Ford (Deactivated User),,Queen Creek,"20911 S Rittenhouse Rd, Queen Creek, AZ 85142",,85142,https://brooklynvspizza.com/
9804373248,Slice Minneapolis,,(612) 886-1921,Minneapolis,519 E Hennepin Ave,,55414,https://slicebrothersusa.com/menu/slice-pizza-northeast-519-east-hennepin-avenue
7751742826,Bourbon Street Pizza - Nappanee,Ammon Musselman (Deactivated User),,Nappanee,1411 E Market St,,46550,https://www.bourbonpizza.com/
8848551178,Este Pizza SLC Downtown,,(801) 363-2366,Salt Lake City,156 E 200 S,,84111,https://www.estepizzaco.com/
7804986707,Pizza Pie Me,,,Arlington,2249 Shirlington Rd E,#E,22206,pizzapieme.net
6833996346,"Stoner's Pizza Joint | Valdosta, GA",Cooper Lush (Deactivated User),(229) 219-1885,Valdosta,1211 Baytree Rd,,31602,https://stonerspizzajoint.com/
9697416559,Payne's Pizza,Dallas Williams,(740) 363-9040,Delaware,"400 W Central Ave, Delaware, OH 43015",,43015,https://www.paynespizza.com/
9110514036,Fargo’s Pizza,,+1 719-473-5540,Colorado Springs,2910 East Platte Avenue,,80909,fargospizza.com
8848561180,Caitlin's,,(303) 798-6600,Denver,4379 E Mississippi Ave,,80246,http://www.caitlinsrestaurant.com/
7752798111,Bourbon Street Pizza - Argos,Ammon Musselman (Deactivated User),,Argos,154 S Michigan St,,46501,https://www.bourbonpizza.com/
9431338400,Delish Pizza- Sacramento 16th Street,Connor Ward (Deactivated User),,Sacramento,2200 16th St,,95818,https://www.delishpizza.com/
8440011156,Antonio’s Pizza (5)*,Dallas Williams,(401) 455-3600,Amherst,31 North Pleasant Street,,1002,antoniospizza.com
7751742605,Bourbon Street Pizza - Culver,Ammon Musselman (Deactivated User),,Culver,614 E Lake Shore Dr,,46511,https://www.bourbonpizza.com/
8385246788,Roxberry | Idaho,Tyler Beagley,(801) 756-1051,Nampa,1850 Caldwell Blvd #105,,83651,https://www.roxberryjuice.com/menu
7686454196,"Papa's Pizza to Go | Franklin, NC",Mckay May,(770) 614-6676,Franklin,263 Holly Springs Plaza,STE A,38201,https://papaspizzatogo.com/papas-locations/
7896464953,Bacci Pizza - Schiller Park,,,Schiller Park,9607 Lawrence Ave,,60176,https://www.baccipizza.com/
7445771351,D'Al's | Greenville,Dallas Williams,(864) 252-4700,Greenville,17 Mohawk Dr,,29609,https://dalspizzagvl.com
9640823356,"PVD Pizza Providence Location (also cranston one, 2 loc)",Taylor Ford (Deactivated User),(401) 654-4466,Providence,"1035 Douglas Ave, Providence, RI 02904",,2904,pvdpizza.com
6945345369,Barnstormers Pizza & More,Dallas Williams,(269) 281-0022,St Joseph,4031 M 139,,49085,barnstormers.pizza
7065876364,Ameci Pizza and Pasta Corporate | Thousand Oaks,,8185091666,Thousand Oaks,1724 E Avenida De Los Arboles,,91362,amecipizzaandpasta.com
9675846662,West Main Pizza,Chris Hubbard,(218) 784-3700,Ada,320 E Main St,,56510,westmainpizza.net
9255993203,Cagney's Pizza King,Kassidy Farrer,(317) 392-4677,Shelbyville,33 East Broadway Street,,46176,cagneyspizza.com
9640700526,Sheldon's Street Pizza,Mckay May,(248) 791-7111,Lake Orion,3767 S Baldwin Rd,,48359,sheldonsstreetpizza.com
7410258550,Cemenos Pizza,Mckay May,(815) 254-2500,Joliet,1630 Essington Road,,60435,cemenospizza.com
8848524416,Scuola Pizza,Chris Hubbard,+1(352)451-4122,Gainesville,5240 NW 34th St,Suite A,32605,scuolapizzagainesville.com
8848448901,signaturepizza.ca,,(204) 837-1234,Winnipeg,5120 ROBLIN BLVD,,R3R 0G9,signaturepizza.ca
8848543641,JJ's Pizza,Kassidy Farrer,(337) 837-3781,Broussard,615 Albertson Pkwy,,70518,jjspizzabroussard.com
8848430239,Maestro’s Pizza,Dallas Williams,(269) 372-2222,Kalamazoo,6070 South 12th Street,,49009,maestros.pizza
9791224416,Pizza Ranch Hartford,Taylor Ford (Deactivated User),(605) 528-3663,Hartford,"120 SD-38, Hartford, SD 57033",,57033,pizzaranchhartford.com
18125004625,Pizza Pizzazz,,(410)835-5303,Pittsville,34455 Old Ocean City Rd #2007,,21850,pizzapizzazzmd.com
15664763569,New York J&P Pizza | Mt. Airy,Chris Hubbard,(301) 317-8444,Mt Airy,409 E Ridgeville Blvd,,21771,https://newyorkjandppizza.com/
17736061479,Seven Nine Four,,(231) 288-1791,Muskegon,794 Pine St,,49442,https://www.jpn-restaurants.com/menus/topshelf-downtown/
17956145238,Baby Jakes Pizza,Dallas Williams,(810) 412-5444,Davison,5515 North Irish Road,,48423,babyjakespizza.com
16626883345,The Hub Pizza Co.,Chris Hubbard,(617) 297-1005,Cedar City,2002 N Main St #5,,84721,https://thehubpizza.com/
10275327571,Lucino's Pizza,Sean MacCourtney,7252052414,Las Vegas,3421 E Tropicana Ave suite f,,89121,https://www.toasttab.com/lucinos-pizza/v3/
15336745731,Big Nicks Pizza,,,San Pedro,1110 N Gaffey St,,90731,https://www.bignickspizza.com/
10693148531,Tony's Pizza To Go | Stockdale,,(661) 679-6050,Bakersfield,13043 Stockdale Hwy #100,,93314,https://tonyspizzastockdale.com
18395875916,Big Kahuna's Pizza,,(808) 833-5588,Honolulu,550 Paiea Street,134,96819,bigkahunaspizzahawaii.com
16912890453,Curry Pizza House | Lake Forest,Tyler Beagley,(949) 859-2336,Lake Forest,24531 Trabuco Rd,,92630,https://currypizzahouse.com/locations/lake-forest/
17921530486,EaTo,Dallas Williams,6122081638,Minneapolis,305 S Washington Ave,,55415,eatompls.com
10409189930,Ronetti’s Pizza,Minwoo Ryum,+1 740-852-1950,London,23 South Main Street,,43140,londonohiopizza.com
15351211597,Pizza Delizia,Mckay May,(716) 655-1900,Elma,2510 Bowen Rd.,,14059,https://pizzadeliziaitalianclassics.com/
15337758058,Mission Pizza Napoletana,,(336) 893-8217,Winston-Salem,707 N Trade St,,27101,https://www.missionpizzanapoletana.com/
18124980235,Trevi Square Pizza,,(908) 755-1944,North Plainfield,1511 U.S. 22,,7069,trevipizzakitchen.com
15351200863,HG Bucks Bagel,Kassidy Farrer,(215) 343-4550,Warrington,626 Easton Rd,,18976,hgcoalfiredpizza.com
17922121292,Rosati's Pizza (Pewaukee),Chris Hubbard,(847) 634-0039,Pewaukee,690 Westfield Way Suite C,,53072,https://www.rosatispizza.com/location/pewaukee-wi/
15845142277,New York J&P Pizza | Spring Ridge,Chris Hubbard,+1 (301) 317-8444,Frederick,6103 Spring Ridge Pkwy,,21701,https://www.newyorkjandppizza.com
10537620845,East of Chicago (Sugarcreek),Sean MacCourtney,(330) 852-0555,Sugarcreek,149 Dover Rd NW,,44681,https://eastofchicago.m.takeout7.com/restaurant-menu
16046894848,Blackjack Pizza | 2 (Academy Ave & North Academy),Mckay May,(719) 392-3400,Colorado Springs,2328 S Academy Blvd,,80916,https://blackjackpizza.com/
18455799668,Armani Pizza and Pasta,,(281) 676-4441,Katy,6868 S Mason Rd,,77450,armani.pizza
17734603421,The Lazy Lion,Sean MacCourtney,6034637374,Deerfield,4 North Road,POB 189,3037,https://www.thelazylionrestaurant.com/
16402709281,Good Vibes Pizza,,(310) 375-2580,Torrance,22825 Hawthorne Blvd,,90505,https://order.toasttab.com/online/gvpizza
18385938812,Pizza Fino (Copperfield),Chris Hubbard,(713) 528-4500,Houston,15550 Farm to Market Rd 529,,77095,mypizzafino.com
10923417013,Pizza in the Neighbor Hood,,(386) 518-5656,Alachua,14212 NW 154th Ave,,32615,https://www.pizzainthehood.com
17799887953,Cimino’s Ristorante & Pizza (newest),Kemron Searle,(815)239-1629,Pecatonica,119 E 4th St,,61063,http://ciminospizza.com
10735496770,Station 34,,(847) 873-1230,Mt Prospect,34 S Main St,,60056,station34pizzapub.com
18283645817,Aegean Pizza,Kassidy Farrer,(401) 568-2725,Chepachet,1195 Putnam Pike,,2814,aegeanpizzachepachet.com
10075398449,Mike's Mr. Pizza,Chris Hubbard,(608) 868-4800,Milton,16 Front Street,,53563,mikesmrpizza.biz
9827402365,Moscatos Pizza (Belvidere),Kassidy Farrer,(815) 547-9100,Belvidere,"520 S State St, Belvidere, IL 61008",,61008,moscatospizza.com
16821343263,Friedman's,Chris Hubbard,(212) 971-9400,New York,"75 9th Ave, ,",,10011,https://www.friedmansrestaurant.com/location/chelsea-friedmans-restaurant/
10804882873,Milwaukee Street Pizza,Kassidy Farrer,16082019189,Janesville,2616 E Milwaukee St,,53545,https://www.milwaukeestreetpizza.com
17557985354,CW Pizza,Ben Jones,3146440515,St. Louis,6018 S Grand Blvd,,63111,cwpizza.com
16821344112,Suram,,,New York,"21 West End Ave, ,",,10023,https://www.suramsushi.com/
15418077723,"Cuzzo's Pasta, Pizza, Panini, & More",Kassidy Farrer,,Oak Park,330 Madison St,,60302,https://slicelife.com/restaurants/il/oak-park/60302/cuzzo-s-pasta-pizza-more/menu?utm_campaign=order_now_button&utm_medium=referral&utm_source=cuzzosoakpark.comindex.html
17913898785,Rosati's Pizza - John Bakas 1 Location,,,Peawaukee,690 Westfield Way Suite C,,53072,https://www.rosatispizza.com/location/pewaukee-wi/
9972390792,Heirloom Pizza Co.,Dallas Williams,(831) 717-4363,Monterey,700 Cass Street,102,93940,heirloompizzapie.com
14921662355,Joe's Pizza & Pasta | Edwardsville *,Sean MacCourtney,,Edwardsville,4 Club Centre Ct,,62025,https://ilovejoespizza.com/
17176808750,Buzzo Pizza,,(831) 316-7336,Soquel,"2510 S Main St, Soquel, CA 95073",,95073,https://www.buzzopizza.com/
18845667916,Original PJ's Pizza,Dallas Williams,(304) 455-4655,New Martinsville,495 3rd Street,,26155,originalpjspizza.com
21425168392,Pizza Garden (Lompac),Sean MacCourtney,805-736-9999,Lompoc,721 West Central Avenue,,93436,lompocpizzagarden.com
20656477750,Times Square Pizza,Sean MacCourtney,(813) 651-0122,Brandon,927 East Bloomingdale Avenue,,33511,tspizzaco.com
21441311004,Five Star Pizza (Tampa),Sean MacCourtney,(813) 899-9700,Temple Terrace,10926 N 56th St,,33617,https://www.fivestarpizza.com/
21546658394,Frank's Pizza,Dallas Williams,(201) 651-0900,Oakland,350 Ramapo Valley Rd,Ste 9,7436,frankspizzaoakland.com
21688042155,Pancoast Pizza,,,Walnut Creek,1516 South Main Street,,94596,http://pancoastpizza.com
19254606000,Mr. Jim's Pizza,Sean MacCourtney,13038700720,Cheyenne,4001 Laramie St Unit B,,82001,http://mrjims.pizza/001.cfm
20722377535,Whiffle Boy’s Pizza (Murphysboro),Sean MacCourtney,,Murphysboro,2039 Walnut Street,,62966,whiffleboyspizza.com
19420392592,Fox's Pizza Den | Michael Kumanchik,Dallas Williams,724-698-7342,New Castle,1905 Wilmington Rd Suite C,,16105,https://www.foxspizza.com/store/pennsylvania/new-castle-pa/
18884933509,Joe’s Meat Market,Mckay May,(732) 926-5544,South Bound Brook,28 Main Street,,8880,joes-meatmarket.com
19161991425,New York Pizza Department (NYPD),Mckay May,,Hixson,8627 Hixson Pike,,37343,nypizzadept.com
21117023111,“Your” Pizza Shop,Sean MacCourtney,(727) 581-1101,Largo,1200 8th Avenue Southwest,,33770,yourpizzashoplargo.com
21396281466,Five Star Pizza UNF,Sean MacCourtney,(904) 512-6000,Jacksonville,3546 St Johns Bluff Rd S UNIT 106,,32224,https://fivestarpizza.com/
21441310769,Five Star Pizza (St. Augestine),Sean MacCourtney,,St. Augustine,987 S Ponce De Leon Blvd,,32084,https://www.fivestarpizza.com/
21441310515,Fiver Star Pizza Citra,Sean MacCourtney,352-595-3234,Jacksonville,"3546 St Johns Bluff Rd S UNIT 106,",,32224,https://www.fivestarpizza.com/
19649913604,Bobalu’s Pizza,Sean MacCourtney,(708) 737-7188,Homer Glen,15755 S Bell Rd,,60491,bobaluspizza.com
20530710146,Larry Bobe's Pizza (Lawrenceville),Sean MacCourtney,6189432612,Lawrenceville,808 State St,,62439,http://bobespizza.net
18805896876,Millie's Pizza,,(413) 532-5300,Norwell,69 Washington Street,,2061,mymilliespizza.com
20117876318,BK's Pizza Express,,(410) 766-3800,Glen Burnie,13 Aquahart Rd,,21061,bkspizza.com
21107873632,Fat Daddios Pizza,Sean MacCourtney,9419573919,Sarasota,3251 17th Street,,34235,http://fatdaddiospizza.com
19306411907,Detroit Pizza Factory Store #2 (Near Van Born Rd),Dallas Williams,,Dearborn Heights,4055 S Telegraph Rd,,48125,https://dpizzafactory.com/
20584660147,Old Town Pizza Co (Schaumburg),Sean MacCourtney,8477810820,Schaumburg,906 Bode Rd,,60194,oldtownpizzaco.com
19306411407,Detroit Pizza Factory #1 (Near Joy Road),Dallas Williams,(313) 278-3355,Dearborn Heights,8471 North Telegraph Road,,48127,dpizzafactory.com
18923842723,Papa Joe’s Italian Cuisine (Lockport),Mckay May,(708) 403-9099,Lockport,944 E 9th St,,60441,papajoesrestaurant.com
18923691437,Papa Joe’s Italian Cuisine (Orland Park),Mckay May,(708) 403-9099,Orland Park,14459 South La Grange Road,,60462,papajoesrestaurant.com
19021438873,Villa Maria Pizza,Sean MacCourtney,(914) 834-8134,Larchmont,6 Chatsworth Avenue,,10538,villamaria.pizza
21646991141,Gino's Pizza (SLO/Pismo Beach),Kassidy Farrer,805-556-0939,Pismo Beach,539 5 Cities Dr,,93449,http://ginospizzaslo.com
21527798083,Five Star Pizza (Gainesville),Sean MacCourtney,,Gainesville,"1315 S Main St Suite 10,, FL",,32601,http://fivestarpizza.net
18594201137,Reddi’s Pizza & Spaghetti,,(216) 676-4300,Brook Park,15523 Snow Road,,44142,reddispizza.com
19699398231,Five Star Pizza (Sarasota),Sean MacCourtney,(941) 371-3333,Kissimmee,500 East Osceola Parkway,,18350,fivestarpizza.com
19615968437,Zillions Pizza,,(917) 409-1227,New York,360 W 42nd St,,10036-6901,zillionspizza.com
18473906593,Breadeaux Pizza (Denison),Dallas Williams,(712) 263-6577,Denison,1119 4th Ave S,,51442,breadeauxpizza.com
18456132496,Tony P's,,(303) 477-4900,Denver,"3000 Zuni St, Denver, CO 80211",,80211,tonypspizza.com
19683469479,Jamestown Hospitality (Group Deep Blue at Kitty Knight),Sean MacCourtney,+113026965652,Galena,4028 Augustine Herman Highway,,21635,https://www.deepbluerestaurant.com/menus/
20101370247,Steel City Pizza Co.,Sean MacCourtney,8436141709,Mount Pleasant,1440 Ben Sawyer Boulevard,,29464,steelcitypizza.com
20898427652,Flippin' Pizza (Vista),Kassidy Farrer,,Escondido,114 W Grand Ave,,92084,https://flippinpizza.com/
21622146163,Five Star Pizza (Mandarin),Sean MacCourtney,9046692560,Jacksonville,9825 San Jose Blvd,,32257,https://www.fivestarpizza.com/
19699723659,Avanti Pizza & Pasta,Sean MacCourtney,(425) 742-7575,Lynnwood,16715 52nd Ave W,ste b,98037,https://www.avantipizzalynnwood.com/
19037730174,Twisted Sisters Pizza,Josh Funes,12482706278,Lake,"8952 Lake Station Ave,",,48632,twistedsisterspizza.com
20530718325,"Romeo's Pizza. (Hartville, Westlake, Elyria)",Dallas Williams,,Elyria,354 Chestnut Commons Dr,200,44035,romeospizza.com
21383475264,Brooklyn Pizza & Pasta,Sean MacCourtney,(406) 422-0801,Helena,70 South Park Avenue,,59601,brooklynpizzahelena.com
20741665681,Philomena Pizza,Chris Hubbard,,Oakland,1801 14th Avenue,,94606,philomenapizza.com
19282959033,Newby's Pizza,Sean MacCourtney,16185346030,Carbondale,830 E Walnut St,,62901,newbyspizza.com
20830503030,Slice Street Pizza,Sean MacCourtney,7602747259,Dripping Springs,333 U.S. 290,Suite 401,78620,slicestreetpizza.com
21622146099,Five Star Pizza (Jacksonville),Sean MacCourtney,,Jacksonville,3325 Plymouth St,,32205,http://www.fivestarpizza.com
20197046310,Guido's Premium Pizza Auburn Hills,Sean MacCourtney,(248) 370-7700,Auburn Hills,4391 Interpark Dr,,48326,guidospizzaauburnhills.com
21819659904,Mountain Mike's Pizza | Dalvir Singh,Chris Hubbard,(650) 270-7356,Fresno,10001 Fowler Ave,,93611,https://www.mountainmikespizza.com/locations/stockton-wilson/
22537244252,Pasco's Pizza,Chris Hubbard,(951) 581-5900,Hesperia,17348 Main St,,92345,http://pascospizza.com/
22872757341,Stone Pizza,Chris Hubbard,(902) 329-2893,The Bronx,123 Westchester Square,,10461,http://Www.stonepizza.ca
23510969676,Romeo's Pizza (Sylvania),Chris Hubbard,(419) 540-9555,Sylvania,7632 W Sylvania Ave,,43560,https://locations.romeospizza.com/sylvania/
23459593812,Cocco's Pizza Folsom,Chris Hubbard,(610) 461-1179,Folsom,331 E MacDade Blvd,,19033,http://coccospizza.com
21733121346,Gumby's Pizza (Aggieland),Chris Hubbard,(979) 764-8629,College Station,1102 Harvey Rd,,77840,https://gumbyspizzaaggieland.com/
23310185795,Romeos Pizza Rootstown,,(330) 578-9050,Rootstown,4071 State Route 44,,44272,https://romeospizza.com/
21838396042,Mignano's Pizza,Chris Hubbard,(717) 417-6762,Felton,76 Red Lion Ave,,17322,https://www.mignanospizzapastasubs.com/?utm_source=gbp
21978647334,Hawks Pizza & Drive-Thru,Mckay May,(419) 599-1946,Napoleon,402 E Washington St,,43545,http://hawkspizza.com
21804387733,Romeo's Pizza (McPage and Romeo's Holdings),Dallas Williams,(330)720-5311,Indiana,1112 Oakland Avenue Indiana,,15701,http://locations.romeospizza.com
22433287452,Whiffle Boys Pizza (Anna),Chris Hubbard,(618) 833-6383,Anna,1215 East Vienna St,,62906,http://www.whiffleboyspizza.com
22537100310,Joe's New York Pizza,Chris Hubbard,(864) 506-6505,Clemson,104 Thomas Green Boulevard,,29631,https://www.joesnypizzaupstate.com/
21910478772,Five Star Pizza Ocala (NE),Sean MacCourtney,,Ocala,500 East Osceola Parkway,,34470,fivestarpizza.com
21728684396,Black Jack Pizza Broomfield,Mckay May,(303)469-5221,Broomfield,6450 W 120th Ave b,,80020,http://blackjackpizza.com
23215698831,Cruisers Huntington Beach,Chris Hubbard,(657) 301-2200,Huntington Beach,210 5th St,,92648,https://www.cruiserspizzabargrill.com
22855804442,Clinton Hometown Pizza,Dallas Williams,(517) 456-7477,Clinton,131 W Michigan Ave,,49236,http://clintonhometownpizza.com
22263942744,Blackjack Pizza & Salads (Campbell),Mckay May,(520) 325-2121,Tucson,2505 N Campbell Ave,,85719,http://blackjackpizza.com
22428616070,Pizza Market Woburn,Chris Hubbard,(781) 367-4810,Woburn,492 Main St,,1801,http://www.pizzamarketofwoburn.com
21694433612,Romeo's Pizza (Bainbridge),Dallas Williams,,Chagrin Falls,8535 Tanglewood Square,,44023,https://romeospizza.com/
21910521496,Five Star Pizza Ocala (SE),Sean MacCourtney,,Ocala,3233 SE Maricamp Rd,,34744,fivestarpizza.com
21925337778,"Blackjack Pizza (Longmont, Loveland, Ft. Collins)",Mckay May,(720) 308-7227,Longmont,1108 Francis St,,80501,http://blackjackpizza.com/blackjack-locations
22746752933,Sun Pizza on Blue Hill Ave,Chris Hubbard,(857) 444-7600,Boston,46 Washington Street,,2121,www.sunpizzama.com
22751680364,Fontas pizzas,Dallas Williams,(970) 270-1950,Greeley,2400 8th Avenue,,80631,http://Fontaspizza.com
22033084474,Zazzo's Pizza,Chris Hubbard,(630) 655-4788,Darien,7360 IL-83,,60527,http://zazzospizza.com
23133347749,Frank's Pizza of Pompton Lakes,Chris Hubbard,(914) 980-1947,Pompton Lakes,19 Wanaque Ave,,7442,https://www.frankspizzapomptonlakes.com/
22062959733,Martel's Pizza,Chris Hubbard,(618) 559-9432,Murphysboro,706 Walnut St,,62966,http://martelspizza.com
22190079270,Round Table Pizza | Paul Tran,,(281) 762-2206,Richmond,8323 Farm to Market Rd. 723,,77406,https://www.roundtablepizza.com/location/1269/
23341271990,Michigan Farmhouse Pizza,Dallas Williams,(616) 504-5040,Clarksville,109 N Main St,,48815,http://mifarmhousepizza.com
22507846915,Pizza Mia!,Chris Hubbard,(814) 355-3738,Bellefonte,106 N Spring St,,16823,http://bellefontepizzamia.com
23467253842,Pizza Perfectta,Chris Hubbard,(412) 661-9991,Pittsburgh,258 S Highland Ave,,15206,http://pizzaperfectta.com
23621225038,Stix and Stones Wood Fired Pizza,Chris Hubbard,(630) 861-0626,Burr Ridge,505 Village Center Dr,,60527,http://eatstixandstones.com
22529859906,Spankey's Una Pizza,Mckay May,(812) 303-2810,Evansville,4404 W Lloyd Expy,,47712,http://www.spankeysunapizza.com
22702037388,Gumby's Pizza (Iowa City),Chris Hubbard,(319) 354-8629,Iowa City,702 S Gilbert St,,52240,https://www.gumbyspizza.com/
21804850204,Fazerrati's Pizza,Mckay May,(707) 681-0972,Napa,1517 W Imola Ave,,94559,fazerratispizza.com
23168993606,Five Star Pizza-Port Orange,Sean MacCourtney,,Port Orange,"3755 S Nova Rd, B",,32129,https://fivestarpizza.com/port-orange-five-star-pizza-delivery/
23452064610,Vigilante Pizza,Mckay May,4065021077,East Helena,704 East Main St.,,59635,https://www.vigilantepizza.com/
21910521134,Five Star Pizza Ocala (SW),Sean MacCourtney,,Ocala,4414 SW College Rd #1740,,34474,https://www.fivestarpizza.com/
22896855838,Five Star Belleview,Sean MacCourtney,(352) 480-5008,Belleview,500 East Osceola Parkway,,34744,https://www.fivestarpizza.com/index.htm
21948853670,Famous Pizza Of West Warwick,Vanessa Wright,781-706-2468,West Warwick,1738 Main St,,02893,https://thefamouspizza.com/
22425988435,Jacobs Pizza & Italian Cuisine,Chris Hubbard,(856) 224-5610,Paulsboro,200 E Broad St,,8066,https://www.jacobspizzaitaliancuisine.com/
22639291015,Papas pizza,Chris Hubbard,(828) 285-8700,Asheville,429 New Leicester Hwy,,28806,http://www.papaspizzaasheville.com
22184682425,Romeo's Pizza (Lagrange and Lorain),Chris Hubbard,(440) 387-1437,Lorain,1980 Cooper Foster Park Rd,200,44053,http://locations.romeospizza.com
22027948554,Monterey’s Pizza,Chris Hubbard,(703) 683-9400,Alexandria,1000 N Fayette Street,,22314,https://montereyspizzadelivery.com/
28330875044,Charlies Pizza,Sean MacCourtney,(732) 657-8663,Manchester Township,1980 Rt 37 W,,8759,http://www.charliespizza.com
26126167592,Pizza Baby!,Minwoo Ryum,(702) 508-0228,North Las Vegas,1631 W Craig Rd,,89032,https://www.pizzababylv.com
26927657244,Five Star Pizza | Tallahassee,Sean MacCourtney,(850) 361-3661,Tallahassee,1505 Governors Square Blvd,,32301,https://www.fivestarpizza.com/
29633911630,Rancho Steve's Pizza,,(916) 851-0749,Rancho Cordova,3191 Zinfandel Dr,,95670,https://www.ranchostevepizza.com
26935609953,Extreme Pizza - San Francisco (Sunset & Oceanview),Dallas Williams,(650) 992-9800,San Francisco,"3911 Alemany Blvd, Ste 1001",,94132,https://www.extremepizza.com/location/oceanview-california/
28591913256,Red Top Pizza (FORMERLY Penny's Pizza),Mckay May,(610) 960-4688,Royersford,68 W Ridge Pike,,19468-1747,https://www.redtoppizza.net/
26885640103,Bambino's Pizza & Subs (Airport Hwy),Mckay May,(419) 385-3388,Toledo,2208 Airport Hwy,,43609,https://www.orderbambinospizzasubsmenu.com
28864352094,Five Star Pizza (Jullington Creek),Sean MacCourtney,,Jacksonville,465 State Rd 13,,32259,https://www.fivestarpizza.com/
28842629135,Boardtown Pizza and Pints,Chris Hubbard,(662) 498-1555,Starkville,705 University Dr,Suite C,39759,http://boardtownpizzaandpints.com
25473056635,Husson's Pizza (Nick's 4 Locs),Chris Hubbard,(304) 757-6035,Boston,5011 Teays Valley Road,#801,25560,https://www.hussonspizza.com/
26248112565,Major League Pizza,Kassidy Farrer,(360) 770-9690,Everett,2811 Colby Ave Ste C,c,98201,http://majorleaguepizza.com/
29303612569,Vicino Pizza,,(208) 758-7770,Coeur d'Alene,2385 N Old Mill Loop,,83814,https://www.vicinopizza.com/
28914580534,Mister Pizza,Mckay May,(716) 882-6500,Buffalo,1065 Elmwood Ave,,14222,https://misterpizzaelmwood.com/
28223912733,Tony's Pizza (Audubon),Chris Hubbard,(610) 666-7943,Norristown,2809 Egypt Rd,,19403,http://tonyspizzaaudubon.com
25084084295,Eli's Pizza and Pasta,Sean MacCourtney,(908) 436-0436,Elizabeth,766 Trumbull St,,7201,http://www.elispizzapastamenu.com
26330942495,Station Pizza,Mckay May,(215) 676-6969,Philadelphia,9319 Krewstown Rd,,19115,https://www.stationpizzakrewstown.com
28880046088,Country Pizza,Chris Hubbard,(978) 342-2028,Fitchburg,6 Ashby State Rd,,1420,https://www.countrypizzafitchburg.com/
27931853237,Stosh's Pizza,Kassidy Farrer,(586) 567-2260,Center Lane,24312 Van Dyke Ave,,48015,https://www.stoshspizza.com/
27444845984,Seasons Pizza (Towson),Sean MacCourtney,(410) 321-8707,Towson,40 York Rd,,21204,http://seasonspizza.com
26286811044,Romeo's Pizza (Davidson),Chris Hubbard,(304) 280-5236,Davidson,610 Jetton St #150,,28036,https://romeospizza.com/
28942009966,Big Guys Pizza (Bridgeville),Chris Hubbard,(412) 257-2222,Bridgeville,435 Bower Hill Road,,15017,bigguyspizzashop.com
26622468009,Bambino's Pizza & Subs,Mckay May,(419) 535-8558,Toledo,4466 Monroe St,,43613,https://www.bambinospizzatoledomenu.com
28854070609,Brick House Pizza,Chris Hubbard,(540) 639-5793,Radford,311 West Main Street,,24141,https://www.brickhousepizzava.com/
27509196072,Olly's Pizza,Sean MacCourtney,(401) 357-0373,Pawtucket,148 Broad St,,2860,https://www.myollyspizza.com/?utm_source=gbp
25277624361,Romeo's Pizza (Clayton),Dallas Williams,(984) 246-9100,Clayton,1130 W Main St,200,27520,http://romeospizza.com
23868180778,Oscars Pizza & Sports Grile,Sean MacCourtney,(402) 758-1910,Omaha,17330 Lakeside Hills Plaza,#801,68130,https://www.toasttab.com/local/oscars-pizza-and-sports-grille-17330-lakeside-hills-plaza/r-82f4b4a6-fed4-4f99-8ca8-5f89f4257235
25578642964,Harbor Springs B.C. Pizza,Chris Hubbard,(231) 526-2424,Harbor Springs,930 State St,,49740,http://bc.pizza
23784922660,First Class Pizza,Kassidy Farrer,(949) 552-5358,Irvine,6420 Irvine Blvd,,92620,https://www.firstclasspizzawoodbury.com/
28618519124,Romeos Pizza Apex NC,Vanessa Wright,(919) 355-2920,Apex,800 W Williams St Suite 160,200,27502,https://romeospizza.com/
28843099785,Romeos Pizza (Wake Forest),Dallas Williams,(984) 401-0006,Wake Forest,3612 Rogers Branch Road,200,27587,https://locations.romeospizza.com/wakeforest/
25681638936,Hail Mary Pizza,Mckay May,(323) 284-8879,LA,3219 Glendale Blvd.,#801,90039,https://www.hailmarypizzala.com/
23759196042,Presto Pizza and Wings,Garrett Harris,+1(623)247-6368,Phoenix,5127 W Indian School Rd,100,85031,https://prestopizzawings.hungerrush.com/Account/LogOn
28902045976,Frankie's Pizza,Sean MacCourtney,(425) 427-6737,North Bend,249 Main Avenue South,,98045,frankies-pizza.com
29655527724,Salerno on Tap,Chris Hubbard,(708) 580-7167,Oak Park,7128 Roosevelt Road,,60304,https://salernospizza.com/chicago/
23779341214,Pepi's,Sean MacCourtney,(315) 363-7580,Oneida,228 Genesee St,,13421,http://pepis-pizza.com
29489613683,Martinos,Mckay May,(702) 672-3971,Las Vegas,8241 South Fort Apache Road,101,89148,http://Martinoskitchen.com
28931118243,Sergio's Pizza,Sean MacCourtney,(518) 306-4400,Ballston Spa,4 Kelch Dr,,12020,https://www.sergiosnypizza.com/saratoga-ny/
28649637740,Flippin Pizza (Bethesda),,(240) 333-2490,Bethesda,10400 Old Georgetown Rd,,20814,https://flippinpizza.com/bethesda/
25080273453,Wild Wings Pizza & Things,Sean MacCourtney,(717) 733-3355,Ephrata,401 N Reading Rd,,17522,http://wildwingsandpizza.com
27518973084,Pizza Hoss Karns,Mckay May,(865) 851-8504,Knoxville,7664 Oak Ridge Hwy,,37931,https://www.pizzahoss.com/
26873803793,Rococo on Western,Sean MacCourtney,(405) 400-7495,Oklahoma City,12252 N May Ave,,73120,http://rococo-restaurant.com
28676581532,Goodfella's Pizza,Sean MacCourtney,(812) 294-3343,Henryville,103 Colonels Way E,#801,47126,https://www.toasttab.com/local/goodfellas-pizza/r-ebf44c61-51d9-4aaa-807d-b5c08ce6714c
25576806053,Husson's Pizza (Christine's Locations),Chris Hubbard,(304) 965-0955,Elkview,5004 Indian Creek Rd,#801,25071,https://www.toasttab.com/local/hussons-pizza-pinch/r-8b54a63f-952b-434e-bd88-b3df9dc43620
23956829719,DeFelice Bros Pizza (Weirton),Sean MacCourtney,(394) 215-0214,Follansbee,801 Main St,,26037,http://www.defelicebrospizza.com
29197691059,Good Time's Pizza Saginaw,Mckay May,(989) 793-6500,Saginaw,"4582 State Street, Saginaw, MI, USA",,48603,http://goodtimespizzasaginaw.com
23954223398,A Slice Above,Chris Hubbard,(440) 826-1300,Strongsville,8788 Pearl Rd,,44136,http://asliceabovepizza.com
28568813630,Coop's Pizza,Dallas Williams,(715) 634-3027,Hayward,10588 California Ave,,54843,http://www.coopspizza.com/
25677258638,Bellonas Pizza,Mckay May,(773) 588-8500,Chicago,3447 W Montrose Ave,,60618,https://www.bellonaspizzamenu.com
29357283361,Pizzanos Express,Kassidy Farrer,,Columbus,804 Parsons Ave.,,43206,http://pizzanosexpress.com
28579375754,Rome Pizza,Sean MacCourtney,(336) 882-5582,High Point,2100 N Main St,,27262,http://www.romeitalianpizza.com/
30759544934,Alejandro's Mexican Food,,(623) 694-2108,Flagstaff,6 E Aspen Ave,,86001,https://alejandrosmexicanfoodflagstaff.com/
31443762750,Jim's Razorback Pizza,Dallas Williams,,Fort Smith,3501 Old Greenwood Rd Ste #17,,72903,https://eatjimsrazorbackpizza.com/
32622049638,Extreme Pizza - Novato,Kassidy Farrer,4158986575,Novato,"104 Vintage Way, Suite A-9",,94945,https://www.extremepizza.com/location/extreme-pizza-novato-california/
31031296661,Neo Pizza Concord,Dallas Williams,(440) 754-8731,Painesville,7685 Crile Rd,,44077,http://pizzaroto.com
30789744929,Big City Pizza,Dallas Williams,(859) 229-7852,Lexington,1060 Chinoe Rd,,40502,http://bigcitypizza.com
31846319654,East of Chicago Pizza (Justin),Sean MacCourtney,(330) 925-3278,Rittman,94 N Main St,,44270,https://eastofchicago.hungerrush.com/Order/OrderType#pizza
30259097477,Far East Pizza,,(469) 984-7137,Plano,McDermott Pl,110,75025,https://www.fareastpizza.com
30188763456,Thai District,Mckay May,(156) 236-2442,Long Beach,149 Linden Ave. Ste E,,90802,http://thaidistrictrestaurant.com
30910929728,Romeo's Pizza (Elizabeth City),Dallas Williams,(252) 254-1599,Elizabeth City,1113 Medina Road,200,44256,http://www.romeospizza.com
30334919220,Fat Chris's Pizza and Such,Mckay May,(773) 944-5444,Chicago,1706 W Foster Ave,,60640,http://fatchrispizza.com
30991814761,Anthony Franco's Pizza,Dallas Williams,(973) 330-6542,"Sparta, Roxbury",8 Town Center Drive,,7871,https://afpizza.com/
32187321259,Pizaro's Pizza Napoletana TX,Mckay May,713-485-0530,Houston,11177 Katy Fwy,,77079,http://www.pizarospizza.com
30989802080,Ollies,Dallas Williams,+1 212-868-6588,New York,411 West 42nd Street,,10036,ollieseats.com
30150164312,Massimo's Pizza & Pasta,Mckay May,(949) 631-0255,Costa Mesa,369 E 17th St Ste 15,,92627,https://www.massimospizza.com
29668029192,Big Daddy's Pizza,,(801) 597-4705,Kearns,3312 Peachtree Industrial Boulevard,2,30096,https://www.bigdaddyspizza.com/locations
32057596315,Nicolo's Pizza,Mckay May,(303)969-9000,Lakewood,7847 W Jewell Ave,,80232,http://nicolospizzalakewoodco.com
31655869063,ZPizza | 8943 Santa Monica Blvd,Minwoo Ryum,(310) 360-1414,West Hollywood,8943 Santa Monica Blvd,,90069,https://zpizzaweho.com/
30633537976,BC Pizza McDonough,Dallas Williams,(678) 583-1550,McDonough,140 W Campground Rd,,30253,http://www.bcpizza.net
31783464239,Sam's Pizza (Newton Falls),Minwoo Ryum,(330) 872-0731,Newton Falls,2228 S Canal St,,44444,http://samspizza44444.com
32723438371,Two Brothers Pizza & Mexican,Kyle Baker,(508)888-4555,Sandwich,331 Cotuit Rd,,02563,http://twobrotherspizza.com
29679828080,B.C Pizza (Charlevoix),Dallas Williams,(231) 547-9999,Charlevoix,6535 M-66 N,,49720,http://www.bcpizza.net/locations.cfm
30382074735,Laventinas Big Cheese Pizza,Dallas Williams,(949) 675-1980,Newport Beach,2819 Newport Blvd,b,92663,http://www.laventinaspizza.com
32139083808,Westwood Pizza,,7813293922,Westwood,929 High St,,02090,http://westwood-pizza.com
31509289091,Galaxy Pizza & Arcade,Sean MacCourtney,(423) 212-0102,Kingsport,122 Shelby Street,,37660,http://galaxypizzaarcade.com
32019968551,Pete's Famous Pizza/ Moustaki Gyros,Chris Hubbard,8567455815,Philadelphia,161 N 21st Street,,19103,http://www.petesfamouspizza.com
31842769490,Westside Pizza (Corporate),Dallas Williams,5096848254,Colville,555 S Main St,,99114,https://westsidepizza.com/locations/colville/
31645619335,Bocce Club Pizza,Mckay May,(716) 983-3776,Buffalo,4174 Bailey Ave,,14226,http://bocceclubpizza.com
31475321775,Good Times Pizza (Midland),Mckay May,(989) 839-0400,Midland,4006 Jefferson Ave,,48640,http://www.goodtimespizzamidland.com
31853732637,MC's Pizza,,+14015486534,East Providence,68 Taunton Ave,,02914,http://Www.mcspizza.com
30746160461,Pizza Dudes,Dallas Williams,(425) 282-4899,Renton,1222 Bronson Way N,,98057,http://mypizzadudes.com
32060057859,Five Star Pizza (Orange Park),Sean MacCourtney,+19042764445,,,,,http://www.fivestarpizza.com
31614403505,Primo Brothers Pizza,Dallas Williams,(214) 341-4414,Dallas,9310 Forest Ln,,75243,http://primobrotherspizza.com
30378736221,Great Pizza Co.,Dallas Williams,(757) 277-9922,Chesapeake,561 Cedar Road,5,23322,https://greatpizzaco.com/
32736545706,Casa Bianca Pizza Pie,Dallas Williams,(323) 256-9617,Los Angeles,1650 Colorado Blvd,,90041,https://casabiancapizza.com/
31702433641,Brabo Pizza,Tyler Price,+18017180525,Salt Lake City,246 E 3900 S,,84107,http://Brabopizza.com
32359251516,Powerhaus Wholesome Pizza & Eats,Mckay May,(858) 886-7666,San Diego,1550 Garnet Avenue,,92109,https://www.powerhauspizza.com
33023405390,Pizza Chef,Mckay May,+1(718)746-1255,Whitestone,153-81 Cross Island Pkwy,,11357,http://www.pizzachef-whitestone.com
33809807663,Pizza Pit Madison,Dallas Williams,608-222-5001,Madison,13 Atlas Ct,,53714,http://pizzapit.com
33065224080,YR Pizza Planet,Minwoo Ryum,5596381006,Orange Cove,921 W Manning Ave,,93654,http://www.yrpizzaplanet.com
33065219988,Yellow Brick Pizza,Mckay May,(614) 725-5482,Columbus,892 Oak Street,,43205,https://yellowbrickpizza.com/
33065219469,This Guy's Pizza,,(401) 228-8188,Johnston,80 Greenville Ave,,2919,thisguyspizzari.com
33065222832,"Papa's Pizza To Go | Cleveland, GA",Mckay May,(706) 219-2071,Cleveland,777 Helen Hwy,,30528,https://papaspizzatogo.hungerrush.com/Order/Menu/1005#pizza
34380791336,Mac's Pizza Shack,Sean MacCourtney,(608)756-4191,Janesville,2307 Milton Avenue,,53545,macspizzashack.com
33065222839,Pizza Vino,Chris Hubbard,(336) 431-5878,High Point,2839 S Main St,,27263,http://pizzavino.net
33016739743,Grasso's Pizza,Minwoo Ryum,+1 716-685-2800,Depew,5202 Transit Road,,14043,grassospizza.com
33048933812,Napoleones Pizza House Inc,,(619) 474-2888,National City,619 National City Blvd,,91950,http://napoleonespizzahouse.com
33065223845,The Original Pizza Place,Chris Hubbard,740-374-4333,Marietta,231 2nd St,,45750,http://theoriginalpizzaplace.com
33048562854,South Lanes Pizza,Mckay May,(608) 788-1303,La Crosse,"1501 Losey Blvd S, La Crosse, WI 54601",,54601,southlanespizza.com
34380791347,Capuano's Pizza House,Mckay May,+1(740)927-7681,Pataskala,24 S Township Rd,,43062,capuanospizzahouse.com
33125092628,The Place Pizza (SS),Chris Hubbard,8019013794,Saratoga Springs,"1032 North Redwood Road, Ste C",,84045,https://www.theplace.pizza/
33220596838,ZPizza | Goker Ozdamar,Tyler Price,(714) 968-8844,Huntington Beach,10035 Adams Ave.,,92646,https://www.zpizza.com
33065223086,a'Roma Pizza,Mckay May,(260) 484-4012,Fort Wayne,1123 East State Blvd,,46805,https://www.aromapizzafw.com/
33373819065,Tony's Pizza | Ming,Chris Hubbard,6613339400,Bakersfield,6417 Ming Ave,,93309,https://tonyspizzacompany.com/tonyspizzaming
33016733309,Northwest Pizza Company,Mckay May,(208)930-4818,Hayden,8158 N Government Way,,83835,http://www.nwpizzaco.com
33065227870,Winners Pizza,Chris Hubbard,(805) 379-4212,Thousand Oaks,1805 E Thousand Oaks Blvd,,91362,http://winnerspizza.com
34443789956,Pizza Del Aureos,Vanessa Wright,+1(716)655-3345,East Aurora,615 Oakwood Ave,,14052,http://pizzadelaureos.com
33048931670,Tony's Pizza Bros,Sean MacCourtney,(805) 445-4400,Camarillo,31 North Lewis Road,,93012,tonyspizzabros.com
33065223744,Burke Street Pizza (Burke Street),Dallas Williams,3367210011,Winston-salem,1140 Burke St,,27101,https://burkestreetpizzas.com/?y_source=1_MjU0NDAzMTktNzE1LWxvY2F0aW9uLndlYnNpdGU%3D
33065219394,Late Night Pizza,,(714) 547-7333,Santa Ana,122 E 17th St,,92706,latenight.pizza
33048563016,Town Hall Pizza,Dallas Williams,(269) 471-7754,Berrien Springs,121 W Ferry St,,49103,https://www.townhallpizza.com/
33048565317,Monstrous Pizza,Sean MacCourtney,(626) 339-2100,Covina,557 North Azusa Avenue,,91722,eatmpizza.com
33048562243,Pizza Pirates,Sean MacCourtney,(909) 590-1700,Jurupa Valley,10255 Mission Boulevard,E,92509,pizzapirates.net
33048936004,Pizza Hot-Line,Sean MacCourtney,(517) 750-1132,Jackson,4135 W Michigan Ave,,49202,http://pizzahot-line.com
33048562496,Celestino's Pizza & Ristorante (PizzaHQ),Dallas Williams,973-337-2000,Woodland Park,223 New Street,,07424,pizza-hq.com
33065219184,Neo Pizza,Dallas Williams,(410) 266-7771,Annapolis,220 Harker Pl Ste 145,145,21401,http://www.neopizza.com
33065218929,AJ's Pizza Co.,Kassidy Farrer,+1(219)464-8282,Chesterton,3050 Matson St,,46304,http://ajspizzaco.com
33048562300,Revolution Pizza,Chris Hubbard,(440) 571-4050,Willowick,1075 E 305th St,,44092,http://revolutionpizzashop.com
33065220981,Harvard House of Pizza,,(617) 864-8090,Cambridge,1706 Massachusetts Ave,,2138,http://harvardhouseofpizza.com
34335626814,Pizza Factory (CA & WA),Kassidy Farrer,(360) 293-1000,Anacortes,3219 Commercial Ave,,98221,https://www.pizzafactory.com/anacortes/
33048562282,Home Run Pizza,Mckay May,7075276600,Santa Rosa,484 Larkfield Center,,95403,homerunpizzalarkfield.com
33065225066,Boomer's Wall Street Pizza,Chris Hubbard,(503) 668-3578,Sandy,39041 Proctor Blvd,,97055,http://boomerspizza.com
33048932376,louswoodfirepizza,,(830) 422-2150,Del Rio,2409 Veterans Boulevard,STE 3,78840,louswoodfirepizza.com
33264093303,Papa T's,Kassidy Farrer,(773) 436-2100,Chicago,2843 W 63rd St,,60629,https://papatspizza.com/
33048560925,Angelo's Pizza,Taylor Ford (Deactivated User),+1 217-824-8209,Taylorville,404 West Spresser Street,,62568,angelos-pizza.net
33081479179,The Pizza Gene,Dallas Williams,+1(772)888-3338,Stuart,424 SE Monterey Rd,,34994,http://www.pizzagene.com/
33065221141,Lisa's Luna Pizza,Dallas Williams,(860) 651-1820,Simsbury,530 Bushy Hill Road,,6070,lunapizzasimsbury.com
33048561167,Oklahoma Pizza Company,Chris Hubbard,(918) 387-8510,Claremore,408 W. Will Rogers Blvd.,,74017,https://www.okpizzaco.com
33112083325,3.14 Pizza,Minwoo Ryum,+1(540)667-8088,Winchester,1153 Berryville Ave,,22601,http://www.314pizzava.com
33048562690,Pizza Man,Mckay May,(763)533-6760,Maple Grove,9703 63rd Ave N,,55369,pizzamanmg.com
33023402424,Duncan City Pizza,,(231) 445-2100,Cheboygan,630 S Main St,,49721,https://www.duncancitypizza.com/
33048933428,Uncle Nick's Pizza,Chris Hubbard,(941) 255-9090,Port Charlotte,1900 Tamiami Trl Unit 115,100,33948,https://unclenickspizza.hungerrush.com/Order/OrderType
33048562982,Josephs Pizza Parlor,,(215) 722-7000,Philadelphia,7947 Oxford Ave,,19111,https://www.josephspizzaparlor.com/
33427960713,Guido's Premium Pizza (Waterford),Kassidy Farrer,(248) 673-8410,Waterford,2510 Airport Road,,48329,http://www.guidospremiumpizza.com
34505503557,Angelo's Pizza and Pasta,Dallas Williams,2813322404,Webster,400 W Bay Area Blvd,,77598,http://www.angelospizza-pasta.com
33065219375,Five Corners Pizza,Sean MacCourtney,(401) 475-9229,Pawtucket,"11 Benefit St A, Pawtucket, RI 02861",,2861,fivecornerspizza.com
33065220655,Pizza and Then Some,Sean MacCourtney,(864) 442-5022,Easley,5809 Calhoun Memorial Highway,,29640,pizzaandthensome.net
35254283358,Joe's Pizza (Jake Betts),Minwoo Ryum,+16184389328,Herculaneum,1185 Scenic Dr,,63048,https://order.spoton.com/so-joes-pizza-and-pasta-herculaneum-23102/herculaneum-mo/67e193914e27f2261a38c675
35039919773,Fox's Pizza Den | Bobby Bucci,Dallas Williams,(724) 845-5581,Leechburg,214 Market St,,15656,http://foxspizza.com
36242425632,Coachella Pizza Co,Tyler Price,+1(760)391-9900,Coachella,49255 Grapefruit Blvd,,92236,https://www.coachellapizzaco.com/
34779926048,Pizza Factory  (Live Oak),Minwoo Ryum,(530) 695-3232,Live Oak,10345 Live Oak Blvd,,95953,https://www.pizzafactory.com/
35040474547,Fox's Pizza Den | John Faatz,Dallas Williams,3043670000,Murrysville,4425 William Penn Highway,,15668,foxspizza.com
35042470804,Mountain Mike's Pizza | Davis,Chris Hubbard,(530) 564 7000,Davis,1411 W. Covell Blvd.,,95616,https://www.mountainmikespizza.com/
36727767040,Gios Flying Pizza & Pasta,Mark Kim,+1 281-337-0107,Dickinson,650 Farm to Market 517 Road West,,77539,giosflyingpizza.com
36316002471,Stuft Pizza - Rancho Palos Verdes,Mark Kim,+13105191411,Rancho Palos Verdes,28635 S Western Ave,,90275,https://www.orderstuftpizzamenu.com/?utm_source=gbp
35043109003,Mountain Mike's Pizza Folsom,Dallas Williams,(916) 817-1207,Oakland,528 Grand Avenue,,95630,https://www.mountainmikespizza.com/
35673434748,Blaze Pizza | Hemet,Dallas Williams,(732) 814-6596,Pasadena,35 N Lake Ave,,91101,https://www.blazepizza.com/
35163683235,Jet's Pizza | JP MN Investments Inc.,Chris Hubbard,(320) 230-5387,St Cloud,19 7th Ave S,,56301,https://www.jetspizza.com/stores/minnesota/saint-cloud/19-7th-ave-s/
35128083852,Mountain Mike's Pizza | Harwinder Singh,Chris Hubbard,(925) 453-6903,Livermore,1129 Catalina Dr,,94550,https://www.mountainmikespizza.com/locations/livermore-catalina/
35045325701,Mountain Mike's Pizza | Jimmy Singh,Christian Carmicheal,2099524141,San Jose,4339 E Morada Ln Ste 100,,95212,http://mountainmikespizza.com
35011190664,Fox's Pizza Den | Richard Dutrow,Dallas Williams,717-552-2372,Chambersburg,120 South Main Street,,17201,https://foxspizza.arrowpos.com/Chambersburg
35038971936,Fox's Pizza Den | Michael Gray,Minwoo Ryum,814-479-4411,Davidsville,205 S Main St,,15928,http://foxspizza.com
35011194505,Fox's Pizza Den | Connor McBriar,Dallas Williams,724-515-2237,Irwin,11322 Center Hwy,,15642,https://www.foxspizza.com/
35673434140,"Blaze Pizza | Fire Pizza, LLC*",Tyler Price,+15017649051,Little Rock,11525 Cantrell Rd #920,,72212,https://order.thanx.com/blazepizza
35011722420,Fox's Pizza Den | Tammy Watson,Dallas Williams,(570) 948-9180,Wellsboro,4425 William Penn Highway,,15668,https://www.foxspizza.com/
35634731920,Blaze Pizza | Dipak Patel,Minwoo Ryum,7144088839,Saint George,1333 Auto Mall Dr #301,,84770,https://locations.blazepizza.com/ut/st.-george/1333-auto-mall-dr?utm_source=gmb&utm_medium=yext
34884572971,Palermo Pizza & Pasta,Chris Hubbard,4254430963,Seattle,350 15th Ave E,,98112,https://www.palermopizzaandpasta.com/b2zgcocr/restaurant/order-online
34993942442,"Fox's Pizza Den | Seneca, Franklin",Mark Kim,814-657-1158,"Seneca, Franklin",3346 State Route 257,,16323,https://foxspizza.arrowpos.com/franklin
35038806528,Fox's Pizza Den | Megan Crisi,Minwoo Ryum,724-701-6430,Burgettstown,1574 Smith Township State Rd,,15021,https://www.foxspizzadenburgettstown.com/
35038971151,Fox's Pizza Den | Theresa Krentz,Dallas Williams,412-666-0400,Monroeville,4400 Old William Penn Hwy #1,,15146,https://foxspizza.arrowpos.com/monroeville
35214013597,Fox's Pizza Den | Nicole and Carl,Vanessa Wright,+17245882222,Greenville,187 Main St,,16125,https://www.foxspizza.com/store/pennsylvania/greenville-pa/
35011722833,Fox's Pizza Den | Billy Bortz,Dallas Williams,17244683300,Murrysville,4425 William Penn Highway,,15668,https://www.foxspizza.com/store/pennsylvania/murrysville-pa/
35045326162,Round Table Pizza | Alireza Vahdat,Howell Asay (Deactivated User),(209) 637-3966,Stockton,1320 Willow Pass Rd,STE 600,94520,https://ordering.roundtablepizza.com/site/rt1169?1169
36252534878,Just Pizza & Wing Co. | 2319 Niagara Falls Blvd.,Minwoo Ryum,716) 568-1000,Amherst,2319 Niagara Falls Blvd.,,14228,justpizzausa.com
35041480995,Fox's Pizza Den | Derrick,Dallas Williams,+1(412)381-9300,Robinson Township,6 Bailey Ave,,15211,foxspizzamtwashington.com
35011193678,Fox's Pizza Den | Sidney Fritz,Dallas Williams,(870) 268-9797,Bono,10040 US-63,,72416,http://foxspizza.com
35011194698,Fox's Pizza Den | Jessica Davis,Dallas Williams,(304) 367-0000,Olla,4513 Main St #165,,71465,https://www.foxspizza.com/
35045326415,Mountain Mike's Pizza | Ron Gill,Kassidy Farrer,(559) 261-5617,Stockton,1000 W Robinhood Dr,,95207,https://www.mountainmikespizza.com/locations/stockton-robin-hood/
36288277601,Fox's Pizza Den | Frank Mascara,Mark Kim,740-623-8799,Millvale,401 Grant Avenue,,16201,https://www.foxspizza.com/store/pennsylvania/millvale-pa/
34994935933,Fox's Pizza Den | Hiram & Heather Jude,Tyler Price,269-420-5979,Battle Creek,12898 Beadle Lake Rd #100,,49014,https://www.foxspizza.com/store/michigan/battle-creek-mi/
35043108633,Mountain Mike's Pizza | Moreno Valley,Chris Hubbard,(408) 846-1900,Gilroy,747 1st St,,95020,http://mountainmikespizza.com
35141234487,Mountain Mike's Pizza | Bobby Singh,,8058682098,CA,2228 S Bradley Rd,,94610,https://www.mountainmikespizza.com/locations/santa-maria-bradley/
35039908141,"Fox's Pizza Den | Boswell, Richland Twp, Roaring Springs",Minwoo Ryum,8142444719,,,,15904,https://www.foxspizza.com/
35011191404,Fox's Pizza Den | Chad Shaffer,Evan Cucuk,+17242653697,Russellton,908 Little Deer Creek Valley Rd,,15076,http://foxspizza.com
35039919920,Fox's Pizza Den | Jay Patel,Vanessa Wright,912-239-4419,Savannah,485 Jimmy Deloach Pkwy unit 101,,94510,http://foxspizza.com
35632660066,Blaze Pizza | Shannon Curlee,Minwoo Ryum,,Albuquerque,6600 Menaul BLVD NE,,87110,www.blazepizza.com
35011722850,Fox's Pizza Den | Christopher Rearick,Dallas Williams,(724) 915-8648,Homer City,41 S Main St,,15748,https://www.foxspizza.com/store/pennsylvania/homer-city-pa/
35012631385,Madela Pizza Pasta,Sean MacCourtney,+1(323)433-3944,Los Angeles,7565 Beverly Blvd,,90036,https://www.madelapizzandpasta.com/
35041273684,Fox's Pizza Den | John Clemens,Minwoo Ryum,724-463-8500,Indiana,580 Philadelphia St,,15701,http://foxspizza.com
35697277812,Blaze Pizza | Nevada Foods Group LLC,Tyler Price,916-212-0610,"Reno, Sparks",537 S Meadows Pkwy Suite 160,,89521,http://blazepizza.com
35214073635,Fox's Pizza Den | Daniel Baumgardner,Vanessa Wright,330-892-5176,Columbiana,144 N Main St,,44408,https://www.foxspizza.com/store/ohio/columbiana-oh/
35039459137,Fox's Pizza Den | Betty Walton,Dallas Williams,+1(678)661-0220,Bogart,2971 Monroe Hwy,,30622,foxspizzaoconee.com
36650785111,Block City Pizza,Chris Hubbard,+1(731)586-4244,Hollow Rock,28460 Broad St,,38342,http://blockcitypizza.com/
35045325312,Mountain Mike's Pizza | Benicia,Vanessa Wright,,Benicia,2130 Columbus Pkwy,,94510,http://mountainmikespizza.com
35041480560,Fox's Pizza Den | Sajjad Gul,Dallas Williams,+1(412)331-3131,McKees Rocks,659 Woodward Ave,,15136,foxspizzamckeesrocks.com
35039917913,Fox's Pizza Den | Willie McElroy,Vanessa Wright,7245629272,Chalkhill,2944 National Pike,,15421,https://www.foxspizza.com
35011723275,Fox's Pizza Den | Chris Rearick,Dallas Williams,7244226634,Saltsburg,616 Salt St,,15681,https://www.foxspizza.com/
36283939687,Great Harvest (Clinton),Vanessa Wright,8017735459,Clinton,2201 N 2000 W,,84015,https://greatharvestutah.com/clinton
34733334446,David's Pizza (Hammer lane/Quail Lakes),Minwoo Ryum,+1(209)477-2677,Stockton,1744 W Hammer Ln,,95209,https://www.davidspizza.org/
35011194422,Fox's Pizza Den | Greg Scampone,Dallas Williams,14125225370,Oakmont,314 Allegheny River Blvd,a,15139,https://foxspizza.arrowpos.com/oakmont
35158226549,Fox's Den Pizza | Samantha Serventi,Minwoo Ryum,(724) 457-3697,Moon Twn Ship,120 W Allegheny Rd,,15126,http://foxspizza.com
36267256918,Just Pizza & Wing Co. | 2351 Bowen Rd,Mark Kim,716) 805-7070,Elma,2351 Bowen Rd,,14059,justpizzausa.com
36381111426,Mountain Mike's Pizza | Ming Ave,Tyler Price,+16615120800,Bakersfield,"9000 Ming Avenue, Unit  H-1",,93311,https://www.mountainmikespizza.com/locations/bakersfield-ming/
35039919728,Fox's Pizza Den (Bridgette Vandevere),Dallas Williams,6625710215,Winnsboro,6361 Highway 4,,71295,http://foxspizza.com
35011190319,Fox's Pizza Den | Scott Lane,Vanessa Wright,330-897-5004,Baltic,121 E Main St,,43804,https://www.foxspizza.com/store/ohio/baltic-oh/
35138959245,Motor City Pizza,Vanessa Wright,+1(972)654-6276,Lewisville,1425 FM-407 Suite 600,,75077,https://www.motorcitypizzatx.com/
35011194923,Fox's Pizza Den | Michelle Bell,Minwoo Ryum,318-728-3130,Rayville,"119 Maxwell St, Rayville, LA 71269",,71269,http://foxspizzarayville.com
35043108171,Round Table Pizza | Jobanpreet Randhawa,Chris Hubbard,(510) 614-0500,San Leandro,13700 Doolittle Dr,,94577,https://www.roundtablepizza.com/?olonwp=JjBtp_vMLk25gkYh_bnoiQ
35247944706,Fox's Pizza Den | Josh Hicks,Vanessa Wright,720-734-1333,Elizabeth City,240 South Elizabeth Street,,80107,http://www.foxspizzaden.com
35011722794,Fox's Pizza Den | Caressa Chapman,Dallas Williams,(304) 269-3697,Weston,415 E 3rd St,,26452,https://www.foxspizza.com/
35011193635,Fox's Pizza Den | Tommy Wynkoop,Dallas Williams,(814) 446-8342,Seward,4425 William Penn Highway,,15668,https://www.foxspizza.com/store/pennsylvania/seward-pa/
36650785145,Block City Pizza (McKenzie),Chris Hubbard,(731) 352-2242,McKenzie,276 Main St S,,38201,http://blockcitypizza.com
37235938580,Peppino's Tomato Pies | Chalfont,Tyler Price,+12157167722,Chalfont,449 W Butler Ave,,18914,https://www.peppinoschalfont.com/menu
37321288011,Mountain Mikes Pizza (Salinas),Mark Kim,+18314491200 (Store),Salinas,"1580 Constitution Blvd, Salinas, CA 93905",,93905,https://www.mountainmikespizza.com/menu/?utm_source=google&utm_medium=local&utm_campaign=localmaps
37412417684,Pizza Factory | Paradise,Tyler Price,+15309660424,Paradise,5835 Clark Rd,,95969,https://www.pizzafactory.com/paradise/
37746363261,Gino's Pizza Place,Mark Kim,7169032153,Tonawanda,351 Fries Rd,,14150,https://www.ginospizzaplace.com/
37746411578,Fox's Pizza Den | Brookville & Dubois,Mark Kim,814-849-7777,"Brookville, Dubois","80 Pickering St, 1 E DuBois Ave",,15825,http://www.foxspizzaden.com